{"type": "FeatureCollection", "features": [{"type": "Feature", "properties": {"rt": 1, "rt_label": "RT 1", "dusun": "Tegalsari", "tk": 4, "sd": 12, "smp": 5, "sma": 7, "buruh_bangunan": 10, "buruh_tani": 1, "karyawan_swasta": 10, "pedagang": 5, "pensiunan": 2, "petani_kebun": 1, "pns_tni_polri": 3, "tidak_bekerja": 2}, "geometry": {"type": "Polygon", "coordinates": [[[110.17276497901558, -7.54973518298013], [110.17276112898887, -7.54974599287395], [110.17266819383991, -7.550125158855079], [110.1729633351345, -7.550199132652726], [110.17283540688305, -7.550878705263529], [110.17250024413214, -7.550833449747252], [110.17245432057533, -7.5511109575792625], [110.17244440023966, -7.551145200596229], [110.17234540616396, -7.551171754104864], [110.17228464154836, -7.551147984050016], [110.17225062239305, -7.551152033185225], [110.1722382166326, -7.5511715510301896], [110.17225771501634, -7.551215813560449], [110.17226176577606, -7.551253875537191], [110.17220086025337, -7.551304156107897], [110.17218632772347, -7.551358639031492], [110.17216670213158, -7.551381228383409], [110.17211719845706, -7.551397976045089], [110.1720672356893, -7.551418773104178], [110.17193884530478, -7.5518483510651215], [110.17176789132736, -7.551828733181694], [110.17154850265125, -7.55186385882982], [110.17127873020306, -7.552026526642141], [110.17120184777626, -7.552043817397221], [110.17110607367395, -7.5520400258901095], [110.17105775233263, -7.551976601434666], [110.1710171587059, -7.551941823935502], [110.17098141711679, -7.551820903689928], [110.17100111022167, -7.551605016682531], [110.17092575994735, -7.551381981182102], [110.17089260641441, -7.551234294974221], [110.17092576142822, -7.551134833167726], [110.17101565592267, -7.551048056752533], [110.17118831720195, -7.550771596402199], [110.1712150856615, -7.550712110522655], [110.17121508613606, -7.550634778172083], [110.17120747155971, -7.550598609752607], [110.17120318773561, -7.550578266146052], [110.17114072793517, -7.550524728020759], [110.17109016541576, -7.5504949849724605], [110.1708403210373, -7.550432524924153], [110.17066985362115, -7.5504586303744645], [110.17060092141122, -7.550450721886295], [110.17056818726095, -7.550450654321168], [110.17052578005725, -7.550429222606084], [110.17050640660476, -7.550418905480428], [110.1704929585541, -7.550411743583925], [110.17044556053894, -7.550367141306952], [110.17044027053957, -7.55036207339811], [110.17043617027106, -7.550358144682395], [110.17041252587325, -7.550335489540763], [110.17040022833618, -7.5503205639407085], [110.17037310213522, -7.550287641738754], [110.17036275969146, -7.550275088689334], [110.1703218341781, -7.55023669439519], [110.17030467512762, -7.55020019308491], [110.17030522197908, -7.550154404704611], [110.17031849903228, -7.550119092694495], [110.17033870232628, -7.550088260168755], [110.17035960886118, -7.550066044171473], [110.17038621742225, -7.550046715252903], [110.17042866837741, -7.550040421961967], [110.17046895027731, -7.550039868012099], [110.17050295068003, -7.550054643964373], [110.17050462701764, -7.550055372541571], [110.17053989350585, -7.550070699011047], [110.17060309714549, -7.550118617262206], [110.17064143890435, -7.550134005639587], [110.17068367282332, -7.550128406554912], [110.1707268919165, -7.550100967893841], [110.17077011100449, -7.550073529227921], [110.17087249275392, -7.549697939983481], [110.17092065656968, -7.549592734228671], [110.17096306870306, -7.549493564923822], [110.17097106812011, -7.549411450373615], [110.17096839271414, -7.549342808641761], [110.17094935316688, -7.549266192699369], [110.17093044499063, -7.549237659296645], [110.17090965784092, -7.549206289489309], [110.1708517606619, -7.549133907871642], [110.17076163007212, -7.5491126768841585], [110.17065467260075, -7.549137955899913], [110.17061162862038, -7.549161547228761], [110.17055304804309, -7.549190001409667], [110.17052355868465, -7.5491866947270205], [110.1705047932158, -7.549173658077476], [110.17049096559508, -7.549154994970168], [110.17048381495967, -7.549132247231267], [110.17048290197057, -7.549112411103134], [110.17048187705308, -7.549082821728512], [110.1704825613898, -7.549052857524668], [110.17049062192638, -7.549020979869777], [110.17053933375246, -7.548980155351825], [110.17066701015523, -7.548893116010276], [110.17080142850106, -7.548829235125], [110.17096370945107, -7.548779939370961], [110.17103745255757, -7.548909638241197], [110.17106505112694, -7.548958178996509], [110.1711358103114, -7.549077012073315], [110.17126987683591, -7.549197879087508], [110.17140837178701, -7.54930269808914], [110.17168185134877, -7.549464774340859], [110.17192279232138, -7.54953320738155], [110.17220051651644, -7.549612087110498], [110.1722159840867, -7.549615397875054], [110.17224507094839, -7.54962162335582], [110.17265737960277, -7.54971334270175], [110.17276497901558, -7.54973518298013]]]}}, {"type": "Feature", "properties": {"rt": 2, "rt_label": "RT 2", "dusun": "Tegalsari", "tk": 0, "sd": 2, "smp": 1, "sma": 6, "buruh_bangunan": 1, "buruh_tani": 1, "karyawan_swasta": 17, "pedagang": 2, "pensiunan": 0, "petani_kebun": 1, "pns_tni_polri": 1, "tidak_bekerja": 3}, "geometry": {"type": "Polygon", "coordinates": [[[110.17656963331231, -7.552556989352619], [110.17655727143156, -7.5525163714430334], [110.17652970871902, -7.552464250170156], [110.1764868676904, -7.552418894574064], [110.17644751068936, -7.552381286113939], [110.17643971979766, -7.552376243401157], [110.17639696404757, -7.55234856880432], [110.17635741535425, -7.552318382168444], [110.17632959613587, -7.552287817864638], [110.17630054609836, -7.552258178334256], [110.17626549415091, -7.552224107273296], [110.17623090128373, -7.552170659419673], [110.17618323029232, -7.5521041632418955], [110.17614087531727, -7.5520443684553245], [110.17607762533838, -7.551944323631642], [110.17602426452392, -7.551859871756172], [110.17596058659207, -7.551753226096902], [110.17592234856491, -7.551680010193816], [110.17589403940924, -7.5516181597641925], [110.17586446496108, -7.55154864054426], [110.17583925246237, -7.551501409694329], [110.17579809008164, -7.55145183056176], [110.17576080398109, -7.5514301955212835], [110.17573777845662, -7.55142228216848], [110.17565883428698, -7.551395034891446], [110.17560357618191, -7.55137581979109], [110.17552828365935, -7.5513496502912405], [110.17543446301137, -7.551317079151257], [110.17530939723241, -7.551273973286687], [110.17512041050782, -7.551211927120397], [110.1748915474044, -7.551133474219079], [110.17476925801805, -7.5510898949825895], [110.17470209620153, -7.551065025074346], [110.17468028326452, -7.551058177632658], [110.17458691215623, -7.551028564833034], [110.17450987638598, -7.551002602621265], [110.17442168620757, -7.550972530150872], [110.17430937982789, -7.550932823661788], [110.17425358830533, -7.550912010981843], [110.17418640788307, -7.550886949214614], [110.17409216812442, -7.550854208780843], [110.17395399956837, -7.550808864516612], [110.17385088677048, -7.550782546273765], [110.17371763091694, -7.550743403320076], [110.17359474398414, -7.5507120132706245], [110.17353046824155, -7.550678564205488], [110.17348071274321, -7.550628018927166], [110.17344457551525, -7.550757005820574], [110.17341907296542, -7.5508540230727395], [110.17339321952412, -7.5509582511008615], [110.17331702415838, -7.5509436985213725], [110.17309398446757, -7.550917126032594], [110.17283540688305, -7.550878705263529], [110.1729633351345, -7.550199132652726], [110.17266819383991, -7.550125158855079], [110.17276112898887, -7.54974599287395], [110.17276497901558, -7.54973518298013], [110.17324350392353, -7.5498323125116915], [110.17363937455495, -7.549933229217091], [110.17367498947796, -7.549928853747831], [110.17409439950839, -7.550070242260067], [110.17429212733195, -7.55013343502291], [110.17439145467421, -7.550173741970106], [110.17547618939825, -7.550279393373418], [110.17543674737223, -7.550057692451553], [110.17543449003158, -7.5500450046198795], [110.17556065311899, -7.5502569759381775], [110.17557142507152, -7.550267765043525], [110.17567052349385, -7.550351492824169], [110.17609354059483, -7.550361624051447], [110.17631334884729, -7.5505429587240345], [110.1765338719788, -7.550726447322545], [110.17653568779309, -7.551034205844299], [110.17653835047423, -7.551372922816639], [110.17655567302032, -7.5513851289127985], [110.17655744718417, -7.5513863795397915], [110.17658233980455, -7.551403919171784], [110.17660458385058, -7.551419593287741], [110.17661149179436, -7.551464440659244], [110.17665832078389, -7.551768460762303], [110.17667447365652, -7.551873329909279], [110.17668194273537, -7.552045050263963], [110.1766819816624, -7.552214603038272], [110.17666816967555, -7.552323485884455], [110.17665909725338, -7.552395000779528], [110.1766024523157, -7.552578736641379], [110.17656963331231, -7.552556989352619]]]}}, {"type": "Feature", "properties": {"rt": 3, "rt_label": "RT 3", "dusun": "Tegalsari", "tk": 4, "sd": 13, "smp": 2, "sma": 3, "buruh_bangunan": 2, "buruh_tani": 2, "karyawan_swasta": 10, "pedagang": 11, "pensiunan": 1, "petani_kebun": 0, "pns_tni_polri": 0, "tidak_bekerja": 2}, "geometry": {"type": "Polygon", "coordinates": [[[110.1743595653087, -7.550950566996888], [110.17433706012443, -7.551024527256024], [110.17428358642208, -7.551197983858027], [110.17424793481152, -7.5513152297522055], [110.17418515672729, -7.551300647500949], [110.17405315795702, -7.551271471697259], [110.17397421718955, -7.551287392401628], [110.17390963622225, -7.5513740500188575], [110.1738804689315, -7.551468809114359], [110.1738642003116, -7.551555557170568], [110.1735929461571, -7.551473807993571], [110.17352291255375, -7.551450083879804], [110.17329934607163, -7.551386253008923], [110.17329580635308, -7.5514045123440745], [110.17329182634836, -7.551425040193749], [110.17324809244322, -7.551619394131461], [110.17321796723706, -7.551782191079901], [110.173217168557, -7.551851419595787], [110.17322823974514, -7.551945585462729], [110.17281815090023, -7.552022828926972], [110.17242826289868, -7.552110476536959], [110.17237663527153, -7.55216019673161], [110.1720935251375, -7.552180203395911], [110.17208642334484, -7.552110172506666], [110.17205366421138, -7.551983150902036], [110.17202653878698, -7.551916843423023], [110.17195174567223, -7.551849831448525], [110.17193884530478, -7.5518483510651215], [110.1720672356893, -7.551418773104178], [110.17211719845706, -7.551397976045089], [110.17216670213158, -7.551381228383409], [110.17218632772347, -7.551358639031492], [110.17220086025337, -7.551304156107897], [110.17226176577606, -7.551253875537191], [110.17225771501634, -7.551215813560449], [110.1722382166326, -7.5511715510301896], [110.17225062239305, -7.551152033185225], [110.17228464154836, -7.551147984050016], [110.17234540616396, -7.551171754104864], [110.17244440023966, -7.551145200596229], [110.17245432057533, -7.5511109575792625], [110.17250024413214, -7.550833449747252], [110.17283540688305, -7.550878705263529], [110.17309398446757, -7.550917126032594], [110.17331702415838, -7.5509436985213725], [110.17339321952412, -7.5509582511008615], [110.17341907296542, -7.5508540230727395], [110.17344457551525, -7.550757005820574], [110.17348071274321, -7.550628018927166], [110.17353046824155, -7.550678564205488], [110.17359474398414, -7.5507120132706245], [110.17371763091694, -7.550743403320076], [110.17385088677048, -7.550782546273765], [110.17395399956837, -7.550808864516612], [110.17409216812442, -7.550854208780843], [110.17418640788307, -7.550886949214614], [110.17425358830533, -7.550912010981843], [110.17430937982789, -7.550932823661788], [110.1743595653087, -7.550950566996888]]]}}, {"type": "Feature", "properties": {"rt": 4, "rt_label": "RT 4", "dusun": "Tegalsari", "tk": 4, "sd": 13, "smp": 3, "sma": 7, "buruh_bangunan": 6, "buruh_tani": 2, "karyawan_swasta": 19, "pedagang": 7, "pensiunan": 1, "petani_kebun": 1, "pns_tni_polri": 1, "tidak_bekerja": 4}, "geometry": {"type": "Polygon", "coordinates": [[[110.17308348453054, -7.553438079293987], [110.17309275781194, -7.553417199417067], [110.17313784691108, -7.553396971904243], [110.17312590503705, -7.5533646031810555], [110.1731226760202, -7.553337178575117], [110.17313672235069, -7.553182281726961], [110.17317072000527, -7.552942645465133], [110.17318113100319, -7.552863423428226], [110.17318714180473, -7.552796886574089], [110.17319423540121, -7.552714795567911], [110.17319678403305, -7.55268721909108], [110.17321489861546, -7.552549266373395], [110.17322712328335, -7.552466229942651], [110.17323890017455, -7.5523860607785345], [110.17324616659528, -7.5523365414294075], [110.17324961164807, -7.552295132581654], [110.17325331509791, -7.552245576640722], [110.17325545051138, -7.552216989977223], [110.17325372111377, -7.552173590518376], [110.17325186590784, -7.552131526742618], [110.17324750353943, -7.552086641662014], [110.17324273936904, -7.552040467837257], [110.17323687989463, -7.552002124761619], [110.17322823932493, -7.55194558553677], [110.173217168557, -7.551851419595787], [110.17321796723706, -7.551782191079901], [110.17324809244322, -7.551619394131461], [110.17329182634836, -7.551425040193749], [110.17329580635308, -7.5514045123440745], [110.17329934607163, -7.551386253008923], [110.17352291255375, -7.551450083879804], [110.1735929461571, -7.551473807993571], [110.1738642003116, -7.551555557170568], [110.1738804689315, -7.551468809114359], [110.17390963622225, -7.5513740500188575], [110.17397421718955, -7.551287392401628], [110.17405315795702, -7.551271471697259], [110.17418515672729, -7.551300647500949], [110.17424793481152, -7.5513152297522055], [110.17428358642208, -7.551197983858027], [110.17433706012443, -7.551024527256024], [110.1743595653087, -7.550950566996888], [110.17442168620757, -7.550972530150872], [110.17450987638598, -7.551002602621265], [110.17458691215623, -7.551028564833034], [110.17468028326452, -7.551058177632658], [110.17470209620153, -7.551065025074346], [110.17476925801805, -7.5510898949825895], [110.1748915474044, -7.551133474219079], [110.17512041050782, -7.551211927120397], [110.17530939723241, -7.551273973286687], [110.17543446301137, -7.551317079151257], [110.17552828365935, -7.5513496502912405], [110.17560357618191, -7.55137581979109], [110.17565883428698, -7.551395034891446], [110.17573777845662, -7.55142228216848], [110.17576080398109, -7.5514301955212835], [110.17579809008164, -7.55145183056176], [110.17583925246237, -7.551501409694329], [110.17586446496108, -7.55154864054426], [110.17589403940924, -7.5516181597641925], [110.17592234856491, -7.551680010193816], [110.17596058659207, -7.551753226096902], [110.17602426452392, -7.551859871756172], [110.17607762533838, -7.551944323631642], [110.17614087531727, -7.5520443684553245], [110.17618323029232, -7.5521041632418955], [110.17623090128373, -7.552170659419673], [110.17626549415091, -7.552224107273296], [110.17630054609836, -7.552258178334256], [110.17632959613587, -7.552287817864638], [110.17635741535425, -7.552318382168444], [110.17639696404757, -7.55234856880432], [110.17643971979766, -7.552376243401157], [110.17644751068936, -7.552381286113939], [110.1764868676904, -7.552418894574064], [110.17652970871902, -7.552464250170156], [110.17655727143156, -7.5525163714430334], [110.17656963331231, -7.552556989352619], [110.17652900764706, -7.5525300690265675], [110.17646819627188, -7.552482393920738], [110.17625597162792, -7.552359048215406], [110.17623102239503, -7.552352717719252], [110.17590780721551, -7.552585737068135], [110.17581073985399, -7.552670209963809], [110.1757694406404, -7.5529501266459445], [110.17574124507033, -7.553159771591799], [110.17544585884848, -7.553112247857581], [110.1750576349154, -7.553050454941962], [110.17498009230769, -7.5533860978920275], [110.17491862850886, -7.553636506457007], [110.1746122994786, -7.553592168759929], [110.17426609608032, -7.553542694886993], [110.17420677571019, -7.553461216339082], [110.17379721724974, -7.5534345961877785], [110.17359004837434, -7.553416973848527], [110.17343782923619, -7.553469299576473], [110.17338750423619, -7.553489341741847], [110.17310461093959, -7.553440943729175], [110.17308348453054, -7.553438079293987]]]}}, {"type": "Feature", "properties": {"rt": 5, "rt_label": "RT 5", "dusun": "Tegalsari", "tk": 5, "sd": 9, "smp": 3, "sma": 5, "buruh_bangunan": 7, "buruh_tani": 4, "karyawan_swasta": 11, "pedagang": 9, "pensiunan": 0, "petani_kebun": 1, "pns_tni_polri": 0, "tidak_bekerja": 2}, "geometry": {"type": "Polygon", "coordinates": [[[110.17308348453054, -7.553438079293987], [110.17270961260559, -7.553387387501537], [110.17244926422542, -7.553338074838442], [110.17227665506195, -7.553306875958365], [110.17226114251314, -7.553290459143609], [110.17185393372725, -7.552951176499609], [110.17173534400887, -7.552848650141186], [110.1717006450685, -7.552804549610099], [110.17179859182278, -7.552766537226867], [110.17199086420135, -7.552546735298856], [110.17207207723999, -7.552375744839045], [110.17210121543374, -7.552256037516283], [110.1720935251375, -7.552180203395911], [110.17237663527153, -7.55216019673161], [110.17242826289868, -7.552110476536959], [110.17281815090023, -7.552022828926972], [110.17322823932493, -7.55194558553677], [110.17323687989463, -7.552002124761619], [110.17324273936904, -7.552040467837257], [110.17324750353943, -7.552086641662014], [110.17325186590784, -7.552131526742618], [110.17325372111377, -7.552173590518376], [110.17325545051138, -7.552216989977223], [110.17325331509791, -7.552245576640722], [110.17324961164807, -7.552295132581654], [110.17324616659528, -7.5523365414294075], [110.17323890017455, -7.5523860607785345], [110.17322712328335, -7.552466229942651], [110.17321489861546, -7.552549266373395], [110.17319678403305, -7.55268721909108], [110.17319423540121, -7.552714795567911], [110.17318714180473, -7.552796886574089], [110.17318113100319, -7.552863423428226], [110.17317072000527, -7.552942645465133], [110.17313672235069, -7.553182281726961], [110.1731226760202, -7.553337178575117], [110.17312590503705, -7.5533646031810555], [110.17313784691108, -7.553396971904243], [110.17309275781194, -7.553417199417067], [110.17308348453054, -7.553438079293987]]]}}]}