{"type": "FeatureCollection", "name": "orientasi_bangunan_tegalsari", "features": [{"type": "Feature", "properties": {"OBJECTID_1": 65, "kode_bangunan": 73, "arah_hadap": "Utara", "arah_hadap_deg": 0}, "geometry": {"type": "Point", "coordinates": [110.1724523, -7.5528353]}}, {"type": "Feature", "properties": {"OBJECTID_1": 69, "kode_bangunan": 78, "arah_hadap": "Utara", "arah_hadap_deg": 0}, "geometry": {"type": "Point", "coordinates": [110.1729253, -7.5523576]}}, {"type": "Feature", "properties": {"OBJECTID_1": 83, "kode_bangunan": 93, "arah_hadap": "Utara", "arah_hadap_deg": 0}, "geometry": {"type": "Point", "coordinates": [110.1729969, -7.551785]}}, {"type": "Feature", "properties": {"OBJECTID_1": 2, "kode_bangunan": 1, "arah_hadap": "Timur", "arah_hadap_deg": 90}, "geometry": {"type": "Point", "coordinates": [110.1760097, -7.5517189]}}, {"type": "Feature", "properties": {"OBJECTID_1": 3, "kode_bangunan": 2, "arah_hadap": "Timur", "arah_hadap_deg": 90}, "geometry": {"type": "Point", "coordinates": [110.1760021, -7.551663]}}, {"type": "Feature", "properties": {"OBJECTID_1": 4, "kode_bangunan": 3, "arah_hadap": "Utara", "arah_hadap_deg": 0}, "geometry": {"type": "Point", "coordinates": [110.1759919, -7.5516079]}}, {"type": "Feature", "properties": {"OBJECTID_1": 5, "kode_bangunan": 4, "arah_hadap": "Selatan", "arah_hadap_deg": 180}, "geometry": {"type": "Point", "coordinates": [110.1735036, -7.5533832]}}, {"type": "Feature", "properties": {"OBJECTID_1": 6, "kode_bangunan": 6, "arah_hadap": "Selatan", "arah_hadap_deg": 180}, "geometry": {"type": "Point", "coordinates": [110.1734118, -7.5533372]}}, {"type": "Feature", "properties": {"OBJECTID_1": 7, "kode_bangunan": 7, "arah_hadap": "Selatan", "arah_hadap_deg": 180}, "geometry": {"type": "Point", "coordinates": [110.1733565, -7.5533208]}}, {"type": "Feature", "properties": {"OBJECTID_1": 9, "kode_bangunan": 10, "arah_hadap": "Barat", "arah_hadap_deg": 270}, "geometry": {"type": "Point", "coordinates": [110.1732206, -7.5533425]}}, {"type": "Feature", "properties": {"OBJECTID_1": 10, "kode_bangunan": 12, "arah_hadap": "Barat", "arah_hadap_deg": 270}, "geometry": {"type": "Point", "coordinates": [110.1732208, -7.5532336]}}, {"type": "Feature", "properties": {"OBJECTID_1": 11, "kode_bangunan": 13, "arah_hadap": "Barat", "arah_hadap_deg": 270}, "geometry": {"type": "Point", "coordinates": [110.1734876, -7.5532644]}}, {"type": "Feature", "properties": {"OBJECTID_1": 12, "kode_bangunan": 14, "arah_hadap": "Barat", "arah_hadap_deg": 270}, "geometry": {"type": "Point", "coordinates": [110.173522, -7.5531681]}}, {"type": "Feature", "properties": {"OBJECTID_1": 13, "kode_bangunan": 15, "arah_hadap": "Utara", "arah_hadap_deg": 0}, "geometry": {"type": "Point", "coordinates": [110.1733927, -7.5530557]}}, {"type": "Feature", "properties": {"OBJECTID_1": 14, "kode_bangunan": 17, "arah_hadap": "Barat", "arah_hadap_deg": 270}, "geometry": {"type": "Point", "coordinates": [110.1734509, -7.5529379]}}, {"type": "Feature", "properties": {"OBJECTID_1": 15, "kode_bangunan": 18, "arah_hadap": "Selatan", "arah_hadap_deg": 180}, "geometry": {"type": "Point", "coordinates": [110.1733944, -7.5529461]}}, {"type": "Feature", "properties": {"OBJECTID_1": 16, "kode_bangunan": 19, "arah_hadap": "Selatan", "arah_hadap_deg": 180}, "geometry": {"type": "Point", "coordinates": [110.1733236, -7.5529061]}}, {"type": "Feature", "properties": {"OBJECTID_1": 17, "kode_bangunan": 20, "arah_hadap": "Selatan", "arah_hadap_deg": 180}, "geometry": {"type": "Point", "coordinates": [110.1732461, -7.552902]}}, {"type": "Feature", "properties": {"OBJECTID_1": 18, "kode_bangunan": 21, "arah_hadap": "Barat", "arah_hadap_deg": 270}, "geometry": {"type": "Point", "coordinates": [110.1733525, -7.5528236]}}, {"type": "Feature", "properties": {"OBJECTID_1": 19, "kode_bangunan": 22, "arah_hadap": "Selatan", "arah_hadap_deg": 180}, "geometry": {"type": "Point", "coordinates": [110.1734744, -7.552773]}}, {"type": "Feature", "properties": {"OBJECTID_1": 20, "kode_bangunan": 23, "arah_hadap": "Selatan", "arah_hadap_deg": 180}, "geometry": {"type": "Point", "coordinates": [110.1733537, -7.5527251]}}, {"type": "Feature", "properties": {"OBJECTID_1": 21, "kode_bangunan": 24, "arah_hadap": "Utara", "arah_hadap_deg": 0}, "geometry": {"type": "Point", "coordinates": [110.1732964, -7.552616]}}, {"type": "Feature", "properties": {"OBJECTID_1": 22, "kode_bangunan": 25, "arah_hadap": "Utara", "arah_hadap_deg": 0}, "geometry": {"type": "Point", "coordinates": [110.1732395, -7.5526859]}}, {"type": "Feature", "properties": {"OBJECTID_1": 23, "kode_bangunan": 26, "arah_hadap": "Utara", "arah_hadap_deg": 0}, "geometry": {"type": "Point", "coordinates": [110.1734456, -7.5526115]}}, {"type": "Feature", "properties": {"OBJECTID_1": 24, "kode_bangunan": 27, "arah_hadap": "Utara", "arah_hadap_deg": 0}, "geometry": {"type": "Point", "coordinates": [110.173498, -7.552659]}}, {"type": "Feature", "properties": {"OBJECTID_1": 25, "kode_bangunan": 28, "arah_hadap": "Selatan", "arah_hadap_deg": 180}, "geometry": {"type": "Point", "coordinates": [110.1736073, -7.5526162]}}, {"type": "Feature", "properties": {"OBJECTID_1": 26, "kode_bangunan": 29, "arah_hadap": "Barat", "arah_hadap_deg": 270}, "geometry": {"type": "Point", "coordinates": [110.1735223, -7.5525705]}}, {"type": "Feature", "properties": {"OBJECTID_1": 27, "kode_bangunan": 30, "arah_hadap": "Barat", "arah_hadap_deg": 270}, "geometry": {"type": "Point", "coordinates": [110.1736335, -7.552543]}}, {"type": "Feature", "properties": {"OBJECTID_1": 28, "kode_bangunan": 31, "arah_hadap": "Utara", "arah_hadap_deg": 0}, "geometry": {"type": "Point", "coordinates": [110.1734791, -7.5525195]}}, {"type": "Feature", "properties": {"OBJECTID_1": 29, "kode_bangunan": 32, "arah_hadap": "Barat Laut", "arah_hadap_deg": 315}, "geometry": {"type": "Point", "coordinates": [110.1733373, -7.5525329]}}, {"type": "Feature", "properties": {"OBJECTID_1": 30, "kode_bangunan": 33, "arah_hadap": "Barat", "arah_hadap_deg": 270}, "geometry": {"type": "Point", "coordinates": [110.1733513, -7.5524751]}}, {"type": "Feature", "properties": {"OBJECTID_1": 31, "kode_bangunan": 34, "arah_hadap": "Selatan", "arah_hadap_deg": 180}, "geometry": {"type": "Point", "coordinates": [110.1735517, -7.5523975]}}, {"type": "Feature", "properties": {"OBJECTID_1": 32, "kode_bangunan": 35, "arah_hadap": "Selatan", "arah_hadap_deg": 180}, "geometry": {"type": "Point", "coordinates": [110.1734616, -7.5523808]}}, {"type": "Feature", "properties": {"OBJECTID_1": 33, "kode_bangunan": 36, "arah_hadap": "Barat", "arah_hadap_deg": 270}, "geometry": {"type": "Point", "coordinates": [110.173387, -7.5523542]}}, {"type": "Feature", "properties": {"OBJECTID_1": 34, "kode_bangunan": 37, "arah_hadap": "Barat", "arah_hadap_deg": 270}, "geometry": {"type": "Point", "coordinates": [110.1735157, -7.5522436]}}, {"type": "Feature", "properties": {"OBJECTID_1": 35, "kode_bangunan": 38, "arah_hadap": "Barat", "arah_hadap_deg": 270}, "geometry": {"type": "Point", "coordinates": [110.173428, -7.5522297]}}, {"type": "Feature", "properties": {"OBJECTID_1": 36, "kode_bangunan": 39, "arah_hadap": "Selatan", "arah_hadap_deg": 180}, "geometry": {"type": "Point", "coordinates": [110.1735122, -7.5521098]}}, {"type": "Feature", "properties": {"OBJECTID_1": 37, "kode_bangunan": 40, "arah_hadap": "Barat", "arah_hadap_deg": 270}, "geometry": {"type": "Point", "coordinates": [110.1733997, -7.5521085]}}, {"type": "Feature", "properties": {"OBJECTID_1": 38, "kode_bangunan": 41, "arah_hadap": "Utara", "arah_hadap_deg": 0}, "geometry": {"type": "Point", "coordinates": [110.1733384, -7.552061]}}, {"type": "Feature", "properties": {"OBJECTID_1": 39, "kode_bangunan": 42, "arah_hadap": "Barat", "arah_hadap_deg": 270}, "geometry": {"type": "Point", "coordinates": [110.1734639, -7.5519893]}}, {"type": "Feature", "properties": {"OBJECTID_1": 40, "kode_bangunan": 43, "arah_hadap": "Barat", "arah_hadap_deg": 270}, "geometry": {"type": "Point", "coordinates": [110.1733971, -7.5519642]}}, {"type": "Feature", "properties": {"OBJECTID_1": 41, "kode_bangunan": 44, "arah_hadap": "Barat", "arah_hadap_deg": 270}, "geometry": {"type": "Point", "coordinates": [110.1734401, -7.5518612]}}, {"type": "Feature", "properties": {"OBJECTID_1": 42, "kode_bangunan": 45, "arah_hadap": "Timur", "arah_hadap_deg": 90}, "geometry": {"type": "Point", "coordinates": [110.1730067, -7.5533252]}}, {"type": "Feature", "properties": {"OBJECTID_1": 43, "kode_bangunan": 46, "arah_hadap": "Timur", "arah_hadap_deg": 90}, "geometry": {"type": "Point", "coordinates": [110.1730328, -7.5532243]}}, {"type": "Feature", "properties": {"OBJECTID_1": 44, "kode_bangunan": 47, "arah_hadap": "Timur", "arah_hadap_deg": 90}, "geometry": {"type": "Point", "coordinates": [110.1728147, -7.5533053]}}, {"type": "Feature", "properties": {"OBJECTID_1": 45, "kode_bangunan": 48, "arah_hadap": "Utara", "arah_hadap_deg": 0}, "geometry": {"type": "Point", "coordinates": [110.1725981, -7.5532955]}}, {"type": "Feature", "properties": {"OBJECTID_1": 46, "kode_bangunan": 49, "arah_hadap": "Utara", "arah_hadap_deg": 0}, "geometry": {"type": "Point", "coordinates": [110.1724965, -7.5532415]}}, {"type": "Feature", "properties": {"OBJECTID_1": 47, "kode_bangunan": 50, "arah_hadap": "Utara", "arah_hadap_deg": 0}, "geometry": {"type": "Point", "coordinates": [110.1724025, -7.5532286]}}, {"type": "Feature", "properties": {"OBJECTID_1": 48, "kode_bangunan": 51, "arah_hadap": "Timur", "arah_hadap_deg": 90}, "geometry": {"type": "Point", "coordinates": [110.1727381, -7.5531665]}}, {"type": "Feature", "properties": {"OBJECTID_1": 49, "kode_bangunan": 52, "arah_hadap": "Timur", "arah_hadap_deg": 90}, "geometry": {"type": "Point", "coordinates": [110.1728479, -7.5531135]}}, {"type": "Feature", "properties": {"OBJECTID_1": 50, "kode_bangunan": 54, "arah_hadap": "Selatan", "arah_hadap_deg": 180}, "geometry": {"type": "Point", "coordinates": [110.1726069, -7.5531266]}}, {"type": "Feature", "properties": {"OBJECTID_1": 51, "kode_bangunan": 55, "arah_hadap": "Selatan", "arah_hadap_deg": 180}, "geometry": {"type": "Point", "coordinates": [110.1726525, -7.5531491]}}, {"type": "Feature", "properties": {"OBJECTID_1": 52, "kode_bangunan": 56, "arah_hadap": "Selatan", "arah_hadap_deg": 180}, "geometry": {"type": "Point", "coordinates": [110.1725258, -7.5531174]}}, {"type": "Feature", "properties": {"OBJECTID_1": 53, "kode_bangunan": 57, "arah_hadap": "Selatan", "arah_hadap_deg": 180}, "geometry": {"type": "Point", "coordinates": [110.1724701, -7.5530983]}}, {"type": "Feature", "properties": {"OBJECTID_1": 54, "kode_bangunan": 58, "arah_hadap": "Selatan", "arah_hadap_deg": 180}, "geometry": {"type": "Point", "coordinates": [110.1724294, -7.5530757]}}, {"type": "Feature", "properties": {"OBJECTID_1": 55, "kode_bangunan": 60, "arah_hadap": "Timur", "arah_hadap_deg": 90}, "geometry": {"type": "Point", "coordinates": [110.1730259, -7.5530256]}}, {"type": "Feature", "properties": {"OBJECTID_1": 56, "kode_bangunan": 61, "arah_hadap": "Timur", "arah_hadap_deg": 90}, "geometry": {"type": "Point", "coordinates": [110.1730321, -7.5528132]}}, {"type": "Feature", "properties": {"OBJECTID_1": 57, "kode_bangunan": 62, "arah_hadap": "Timur", "arah_hadap_deg": 90}, "geometry": {"type": "Point", "coordinates": [110.1728513, -7.5529379]}}, {"type": "Feature", "properties": {"OBJECTID_1": 58, "kode_bangunan": 63, "arah_hadap": "Timur", "arah_hadap_deg": 90}, "geometry": {"type": "Point", "coordinates": [110.173053, -7.5527237]}}, {"type": "Feature", "properties": {"OBJECTID_1": 59, "kode_bangunan": 64, "arah_hadap": "Timur", "arah_hadap_deg": 90}, "geometry": {"type": "Point", "coordinates": [110.1730892, -7.5526858]}}, {"type": "Feature", "properties": {"OBJECTID_1": 60, "kode_bangunan": 66, "arah_hadap": "Utara", "arah_hadap_deg": 0}, "geometry": {"type": "Point", "coordinates": [110.1730548, -7.5525804]}}, {"type": "Feature", "properties": {"OBJECTID_1": 61, "kode_bangunan": 67, "arah_hadap": "Timur", "arah_hadap_deg": 90}, "geometry": {"type": "Point", "coordinates": [110.1728758, -7.5527426]}}, {"type": "Feature", "properties": {"OBJECTID_1": 62, "kode_bangunan": 68, "arah_hadap": "Timur", "arah_hadap_deg": 90}, "geometry": {"type": "Point", "coordinates": [110.1729112, -7.5526234]}}, {"type": "Feature", "properties": {"OBJECTID_1": 63, "kode_bangunan": 70, "arah_hadap": "Timur", "arah_hadap_deg": 90}, "geometry": {"type": "Point", "coordinates": [110.1724538, -7.5530198]}}, {"type": "Feature", "properties": {"OBJECTID_1": 64, "kode_bangunan": 72, "arah_hadap": "Selatan", "arah_hadap_deg": 180}, "geometry": {"type": "Point", "coordinates": [110.1726885, -7.5528295]}}, {"type": "Feature", "properties": {"OBJECTID_1": 66, "kode_bangunan": 74, "arah_hadap": "Timur", "arah_hadap_deg": 90}, "geometry": {"type": "Point", "coordinates": [110.1724333, -7.552882]}}, {"type": "Feature", "properties": {"OBJECTID_1": 67, "kode_bangunan": 76, "arah_hadap": "Timur", "arah_hadap_deg": 90}, "geometry": {"type": "Point", "coordinates": [110.1725219, -7.5527681]}}, {"type": "Feature", "properties": {"OBJECTID_1": 68, "kode_bangunan": 77, "arah_hadap": "Utara", "arah_hadap_deg": 0}, "geometry": {"type": "Point", "coordinates": [110.1730743, -7.5524507]}}, {"type": "Feature", "properties": {"OBJECTID_1": 70, "kode_bangunan": 79, "arah_hadap": "Timur", "arah_hadap_deg": 90}, "geometry": {"type": "Point", "coordinates": [110.1730872, -7.5522137]}}, {"type": "Feature", "properties": {"OBJECTID_1": 71, "kode_bangunan": 80, "arah_hadap": "Timur", "arah_hadap_deg": 90}, "geometry": {"type": "Point", "coordinates": [110.1729196, -7.5522569]}}, {"type": "Feature", "properties": {"OBJECTID_1": 72, "kode_bangunan": 81, "arah_hadap": "Timur", "arah_hadap_deg": 90}, "geometry": {"type": "Point", "coordinates": [110.1729479, -7.5521853]}}, {"type": "Feature", "properties": {"OBJECTID_1": 73, "kode_bangunan": 82, "arah_hadap": "Timur", "arah_hadap_deg": 90}, "geometry": {"type": "Point", "coordinates": [110.1729406, -7.5521096]}}, {"type": "Feature", "properties": {"OBJECTID_1": 74, "kode_bangunan": 84, "arah_hadap": "Selatan", "arah_hadap_deg": 180}, "geometry": {"type": "Point", "coordinates": [110.1726788, -7.5523571]}}, {"type": "Feature", "properties": {"OBJECTID_1": 75, "kode_bangunan": 85, "arah_hadap": "Selatan", "arah_hadap_deg": 180}, "geometry": {"type": "Point", "coordinates": [110.1725894, -7.5522616]}}, {"type": "Feature", "properties": {"OBJECTID_1": 76, "kode_bangunan": 86, "arah_hadap": "Barat", "arah_hadap_deg": 270}, "geometry": {"type": "Point", "coordinates": [110.1733722, -7.55154]}}, {"type": "Feature", "properties": {"OBJECTID_1": 77, "kode_bangunan": 87, "arah_hadap": "Utara", "arah_hadap_deg": 0}, "geometry": {"type": "Point", "coordinates": [110.1734767, -7.5515502]}}, {"type": "Feature", "properties": {"OBJECTID_1": 78, "kode_bangunan": 88, "arah_hadap": "Barat", "arah_hadap_deg": 270}, "geometry": {"type": "Point", "coordinates": [110.1734698, -7.55138]}}, {"type": "Feature", "properties": {"OBJECTID_1": 79, "kode_bangunan": 89, "arah_hadap": "Selatan", "arah_hadap_deg": 180}, "geometry": {"type": "Point", "coordinates": [110.1735641, -7.5511294]}}, {"type": "Feature", "properties": {"OBJECTID_1": 80, "kode_bangunan": 90, "arah_hadap": "Utara", "arah_hadap_deg": 0}, "geometry": {"type": "Point", "coordinates": [110.1739736, -7.5509497]}}, {"type": "Feature", "properties": {"OBJECTID_1": 81, "kode_bangunan": 91, "arah_hadap": "Timur", "arah_hadap_deg": 90}, "geometry": {"type": "Point", "coordinates": [110.1737656, -7.5509568]}}, {"type": "Feature", "properties": {"OBJECTID_1": 82, "kode_bangunan": 92, "arah_hadap": "Utara", "arah_hadap_deg": 0}, "geometry": {"type": "Point", "coordinates": [110.1735993, -7.5508145]}}, {"type": "Feature", "properties": {"OBJECTID_1": 84, "kode_bangunan": 95, "arah_hadap": "Selatan", "arah_hadap_deg": 180}, "geometry": {"type": "Point", "coordinates": [110.1728922, -7.5517195]}}, {"type": "Feature", "properties": {"OBJECTID_1": 85, "kode_bangunan": 96, "arah_hadap": "Timur", "arah_hadap_deg": 90}, "geometry": {"type": "Point", "coordinates": [110.1728712, -7.5518079]}}, {"type": "Feature", "properties": {"OBJECTID_1": 86, "kode_bangunan": 97, "arah_hadap": "Timur", "arah_hadap_deg": 90}, "geometry": {"type": "Point", "coordinates": [110.1729055, -7.5515882]}}, {"type": "Feature", "properties": {"OBJECTID_1": 87, "kode_bangunan": 98, "arah_hadap": "Timur", "arah_hadap_deg": 90}, "geometry": {"type": "Point", "coordinates": [110.1729357, -7.551509]}}, {"type": "Feature", "properties": {"OBJECTID_1": 88, "kode_bangunan": 99, "arah_hadap": "Timur", "arah_hadap_deg": 90}, "geometry": {"type": "Point", "coordinates": [110.1730685, -7.5516376]}}, {"type": "Feature", "properties": {"OBJECTID_1": 89, "kode_bangunan": 100, "arah_hadap": "Barat", "arah_hadap_deg": 270}, "geometry": {"type": "Point", "coordinates": [110.1730863, -7.5515276]}}, {"type": "Feature", "properties": {"OBJECTID_1": 90, "kode_bangunan": 101, "arah_hadap": "Timur", "arah_hadap_deg": 90}, "geometry": {"type": "Point", "coordinates": [110.1731741, -7.5514292]}}, {"type": "Feature", "properties": {"OBJECTID_1": 91, "kode_bangunan": 102, "arah_hadap": "Timur", "arah_hadap_deg": 90}, "geometry": {"type": "Point", "coordinates": [110.1728917, -7.55141]}}, {"type": "Feature", "properties": {"OBJECTID_1": 92, "kode_bangunan": 103, "arah_hadap": "Timur", "arah_hadap_deg": 90}, "geometry": {"type": "Point", "coordinates": [110.173253, -7.5513167]}}, {"type": "Feature", "properties": {"OBJECTID_1": 93, "kode_bangunan": 104, "arah_hadap": "Selatan", "arah_hadap_deg": 180}, "geometry": {"type": "Point", "coordinates": [110.1731311, -7.5512985]}}, {"type": "Feature", "properties": {"OBJECTID_1": 94, "kode_bangunan": 105, "arah_hadap": "Selatan", "arah_hadap_deg": 180}, "geometry": {"type": "Point", "coordinates": [110.1730461, -7.5512633]}}, {"type": "Feature", "properties": {"OBJECTID_1": 95, "kode_bangunan": 106, "arah_hadap": "Timur", "arah_hadap_deg": 90}, "geometry": {"type": "Point", "coordinates": [110.1729127, -7.5512992]}}, {"type": "Feature", "properties": {"OBJECTID_1": 96, "kode_bangunan": 107, "arah_hadap": "Utara", "arah_hadap_deg": 0}, "geometry": {"type": "Point", "coordinates": [110.1732019, -7.5512205]}}, {"type": "Feature", "properties": {"OBJECTID_1": 97, "kode_bangunan": 109, "arah_hadap": "Timur", "arah_hadap_deg": 90}, "geometry": {"type": "Point", "coordinates": [110.1732766, -7.5512058]}}, {"type": "Feature", "properties": {"OBJECTID_1": 98, "kode_bangunan": 110, "arah_hadap": "Utara", "arah_hadap_deg": 0}, "geometry": {"type": "Point", "coordinates": [110.1732622, -7.5510435]}}, {"type": "Feature", "properties": {"OBJECTID_1": 99, "kode_bangunan": 111, "arah_hadap": "Utara", "arah_hadap_deg": 0}, "geometry": {"type": "Point", "coordinates": [110.1731493, -7.5510643]}}, {"type": "Feature", "properties": {"OBJECTID_1": 100, "kode_bangunan": 112, "arah_hadap": "Barat", "arah_hadap_deg": 270}, "geometry": {"type": "Point", "coordinates": [110.1730541, -7.5511218]}}, {"type": "Feature", "properties": {"OBJECTID_1": 101, "kode_bangunan": 113, "arah_hadap": "Utara", "arah_hadap_deg": 0}, "geometry": {"type": "Point", "coordinates": [110.1730685, -7.5510038]}}, {"type": "Feature", "properties": {"OBJECTID_1": 102, "kode_bangunan": 114, "arah_hadap": "Utara", "arah_hadap_deg": 0}, "geometry": {"type": "Point", "coordinates": [110.1729757, -7.5510269]}}, {"type": "Feature", "properties": {"OBJECTID_1": 103, "kode_bangunan": 115, "arah_hadap": "Timur", "arah_hadap_deg": 90}, "geometry": {"type": "Point", "coordinates": [110.1729009, -7.5510104]}}, {"type": "Feature", "properties": {"OBJECTID_1": 104, "kode_bangunan": 116, "arah_hadap": "Timur", "arah_hadap_deg": 90}, "geometry": {"type": "Point", "coordinates": [110.1727488, -7.5510314]}}, {"type": "Feature", "properties": {"OBJECTID_1": 105, "kode_bangunan": 122, "arah_hadap": "Utara", "arah_hadap_deg": 0}, "geometry": {"type": "Point", "coordinates": [110.1725101, -7.5511686]}}, {"type": "Feature", "properties": {"OBJECTID_1": 106, "kode_bangunan": 123, "arah_hadap": "Timur", "arah_hadap_deg": 90}, "geometry": {"type": "Point", "coordinates": [110.1723737, -7.5510067]}}, {"type": "Feature", "properties": {"OBJECTID_1": 107, "kode_bangunan": 124, "arah_hadap": "Timur", "arah_hadap_deg": 90}, "geometry": {"type": "Point", "coordinates": [110.1723458, -7.5509038]}}, {"type": "Feature", "properties": {"OBJECTID_1": 108, "kode_bangunan": 127, "arah_hadap": "Utara", "arah_hadap_deg": 0}, "geometry": {"type": "Point", "coordinates": [110.1720533, -7.5512938]}}, {"type": "Feature", "properties": {"OBJECTID_1": 109, "kode_bangunan": 128, "arah_hadap": "Utara", "arah_hadap_deg": 0}, "geometry": {"type": "Point", "coordinates": [110.172139, -7.5511581]}}, {"type": "Feature", "properties": {"OBJECTID_1": 110, "kode_bangunan": 129, "arah_hadap": "Utara", "arah_hadap_deg": 0}, "geometry": {"type": "Point", "coordinates": [110.1719544, -7.5512321]}}, {"type": "Feature", "properties": {"OBJECTID_1": 111, "kode_bangunan": 130, "arah_hadap": "Timur", "arah_hadap_deg": 90}, "geometry": {"type": "Point", "coordinates": [110.1718461, -7.5511544]}}, {"type": "Feature", "properties": {"OBJECTID_1": 112, "kode_bangunan": 131, "arah_hadap": "Utara", "arah_hadap_deg": 0}, "geometry": {"type": "Point", "coordinates": [110.1719902, -7.5510675]}}, {"type": "Feature", "properties": {"OBJECTID_1": 113, "kode_bangunan": 132, "arah_hadap": "Utara", "arah_hadap_deg": 0}, "geometry": {"type": "Point", "coordinates": [110.1719414, -7.5510221]}}, {"type": "Feature", "properties": {"OBJECTID_1": 114, "kode_bangunan": 133, "arah_hadap": "Utara", "arah_hadap_deg": 0}, "geometry": {"type": "Point", "coordinates": [110.1718551, -7.551069]}}, {"type": "Feature", "properties": {"OBJECTID_1": 115, "kode_bangunan": 134, "arah_hadap": "Timur", "arah_hadap_deg": 90}, "geometry": {"type": "Point", "coordinates": [110.1718591, -7.5509826]}}, {"type": "Feature", "properties": {"OBJECTID_1": 116, "kode_bangunan": 135, "arah_hadap": "Utara", "arah_hadap_deg": 0}, "geometry": {"type": "Point", "coordinates": [110.1721307, -7.5508707]}}, {"type": "Feature", "properties": {"OBJECTID_1": 117, "kode_bangunan": 137, "arah_hadap": "Utara", "arah_hadap_deg": 0}, "geometry": {"type": "Point", "coordinates": [110.1718444, -7.550901]}}, {"type": "Feature", "properties": {"OBJECTID_1": 118, "kode_bangunan": 139, "arah_hadap": "Utara", "arah_hadap_deg": 0}, "geometry": {"type": "Point", "coordinates": [110.1717359, -7.5507243]}}, {"type": "Feature", "properties": {"OBJECTID_1": 119, "kode_bangunan": 140, "arah_hadap": "Barat", "arah_hadap_deg": 270}, "geometry": {"type": "Point", "coordinates": [110.1738395, -7.5504583]}}, {"type": "Feature", "properties": {"OBJECTID_1": 120, "kode_bangunan": 141, "arah_hadap": "Barat", "arah_hadap_deg": 270}, "geometry": {"type": "Point", "coordinates": [110.1738371, -7.5501831]}}, {"type": "Feature", "properties": {"OBJECTID_1": 121, "kode_bangunan": 142, "arah_hadap": "Utara", "arah_hadap_deg": 0}, "geometry": {"type": "Point", "coordinates": [110.1736855, -7.5502253]}}, {"type": "Feature", "properties": {"OBJECTID_1": 122, "kode_bangunan": 143, "arah_hadap": "Utara", "arah_hadap_deg": 0}, "geometry": {"type": "Point", "coordinates": [110.1732587, -7.5508499]}}, {"type": "Feature", "properties": {"OBJECTID_1": 123, "kode_bangunan": 144, "arah_hadap": "Utara", "arah_hadap_deg": 0}, "geometry": {"type": "Point", "coordinates": [110.1732937, -7.5506821]}}, {"type": "Feature", "properties": {"OBJECTID_1": 124, "kode_bangunan": 145, "arah_hadap": "Utara", "arah_hadap_deg": 0}, "geometry": {"type": "Point", "coordinates": [110.1731361, -7.5507869]}}, {"type": "Feature", "properties": {"OBJECTID_1": 125, "kode_bangunan": 146, "arah_hadap": "Utara", "arah_hadap_deg": 0}, "geometry": {"type": "Point", "coordinates": [110.1733455, -7.5506015]}}, {"type": "Feature", "properties": {"OBJECTID_1": 126, "kode_bangunan": 147, "arah_hadap": "Utara", "arah_hadap_deg": 0}, "geometry": {"type": "Point", "coordinates": [110.1734069, -7.5504927]}}, {"type": "Feature", "properties": {"OBJECTID_1": 127, "kode_bangunan": 148, "arah_hadap": "Utara", "arah_hadap_deg": 0}, "geometry": {"type": "Point", "coordinates": [110.1734489, -7.5504292]}}, {"type": "Feature", "properties": {"OBJECTID_1": 128, "kode_bangunan": 149, "arah_hadap": "Utara", "arah_hadap_deg": 0}, "geometry": {"type": "Point", "coordinates": [110.1734747, -7.5503074]}}, {"type": "Feature", "properties": {"OBJECTID_1": 129, "kode_bangunan": 150, "arah_hadap": "Utara", "arah_hadap_deg": 0}, "geometry": {"type": "Point", "coordinates": [110.1731603, -7.550409]}}, {"type": "Feature", "properties": {"OBJECTID_1": 130, "kode_bangunan": 151, "arah_hadap": "Utara", "arah_hadap_deg": 0}, "geometry": {"type": "Point", "coordinates": [110.1732756, -7.5502827]}}, {"type": "Feature", "properties": {"OBJECTID_1": 131, "kode_bangunan": 152, "arah_hadap": "Utara", "arah_hadap_deg": 0}, "geometry": {"type": "Point", "coordinates": [110.173191, -7.5502737]}}, {"type": "Feature", "properties": {"OBJECTID_1": 132, "kode_bangunan": 153, "arah_hadap": "Utara", "arah_hadap_deg": 0}, "geometry": {"type": "Point", "coordinates": [110.1734895, -7.5501688]}}, {"type": "Feature", "properties": {"OBJECTID_1": 133, "kode_bangunan": 154, "arah_hadap": "Selatan", "arah_hadap_deg": 180}, "geometry": {"type": "Point", "coordinates": [110.1733081, -7.5501587]}}, {"type": "Feature", "properties": {"OBJECTID_1": 134, "kode_bangunan": 155, "arah_hadap": "Timur", "arah_hadap_deg": 90}, "geometry": {"type": "Point", "coordinates": [110.1735009, -7.5499864]}}, {"type": "Feature", "properties": {"OBJECTID_1": 135, "kode_bangunan": 156, "arah_hadap": "Timur", "arah_hadap_deg": 90}, "geometry": {"type": "Point", "coordinates": [110.1733699, -7.5501363]}}, {"type": "Feature", "properties": {"OBJECTID_1": 136, "kode_bangunan": 157, "arah_hadap": "Utara", "arah_hadap_deg": 0}, "geometry": {"type": "Point", "coordinates": [110.1733226, -7.5499356]}}, {"type": "Feature", "properties": {"OBJECTID_1": 137, "kode_bangunan": 158, "arah_hadap": "Utara", "arah_hadap_deg": 0}, "geometry": {"type": "Point", "coordinates": [110.1732537, -7.5499634]}}, {"type": "Feature", "properties": {"OBJECTID_1": 138, "kode_bangunan": 159, "arah_hadap": "Utara", "arah_hadap_deg": 0}, "geometry": {"type": "Point", "coordinates": [110.1731584, -7.5499747]}}, {"type": "Feature", "properties": {"OBJECTID_1": 139, "kode_bangunan": 160, "arah_hadap": "Utara", "arah_hadap_deg": 0}, "geometry": {"type": "Point", "coordinates": [110.1730154, -7.5499353]}}, {"type": "Feature", "properties": {"OBJECTID_1": 140, "kode_bangunan": 161, "arah_hadap": "Utara", "arah_hadap_deg": 0}, "geometry": {"type": "Point", "coordinates": [110.1729641, -7.5498981]}}, {"type": "Feature", "properties": {"OBJECTID_1": 141, "kode_bangunan": 162, "arah_hadap": "Utara", "arah_hadap_deg": 0}, "geometry": {"type": "Point", "coordinates": [110.1727848, -7.5499548]}}, {"type": "Feature", "properties": {"OBJECTID_1": 142, "kode_bangunan": 163, "arah_hadap": "Utara", "arah_hadap_deg": 0}, "geometry": {"type": "Point", "coordinates": [110.1727787, -7.5500402]}}, {"type": "Feature", "properties": {"OBJECTID_1": 143, "kode_bangunan": 164, "arah_hadap": "Barat", "arah_hadap_deg": 270}, "geometry": {"type": "Point", "coordinates": [110.1727415, -7.5502602]}}, {"type": "Feature", "properties": {"OBJECTID_1": 144, "kode_bangunan": 165, "arah_hadap": "Barat", "arah_hadap_deg": 270}, "geometry": {"type": "Point", "coordinates": [110.1726708, -7.5504748]}}, {"type": "Feature", "properties": {"OBJECTID_1": 145, "kode_bangunan": 166, "arah_hadap": "Barat", "arah_hadap_deg": 270}, "geometry": {"type": "Point", "coordinates": [110.1727055, -7.5505592]}}, {"type": "Feature", "properties": {"OBJECTID_1": 146, "kode_bangunan": 167, "arah_hadap": "Timur", "arah_hadap_deg": 90}, "geometry": {"type": "Point", "coordinates": [110.1725439, -7.5502627]}}, {"type": "Feature", "properties": {"OBJECTID_1": 147, "kode_bangunan": 168, "arah_hadap": "Selatan", "arah_hadap_deg": 180}, "geometry": {"type": "Point", "coordinates": [110.1722403, -7.5506902]}}, {"type": "Feature", "properties": {"OBJECTID_1": 148, "kode_bangunan": 169, "arah_hadap": "Utara", "arah_hadap_deg": 0}, "geometry": {"type": "Point", "coordinates": [110.1721095, -7.5506824]}}, {"type": "Feature", "properties": {"OBJECTID_1": 149, "kode_bangunan": 171, "arah_hadap": "Utara", "arah_hadap_deg": 0}, "geometry": {"type": "Point", "coordinates": [110.1718873, -7.5505877]}}, {"type": "Feature", "properties": {"OBJECTID_1": 150, "kode_bangunan": 172, "arah_hadap": "Timur", "arah_hadap_deg": 90}, "geometry": {"type": "Point", "coordinates": [110.1716942, -7.5502426]}}, {"type": "Feature", "properties": {"OBJECTID_1": 151, "kode_bangunan": 173, "arah_hadap": "Timur", "arah_hadap_deg": 90}, "geometry": {"type": "Point", "coordinates": [110.171727, -7.5501121]}}, {"type": "Feature", "properties": {"OBJECTID_1": 8, "kode_bangunan": 8, "arah_hadap": "Utara", "arah_hadap_deg": 0}, "geometry": {"type": "Point", "coordinates": [110.1732772, -7.553364]}}, {"type": "Feature", "properties": {"OBJECTID_1": 152, "kode_bangunan": 174, "arah_hadap": "Utara", "arah_hadap_deg": 0}, "geometry": {"type": "Point", "coordinates": [110.1726087, -7.5498965]}}, {"type": "Feature", "properties": {"OBJECTID_1": 153, "kode_bangunan": 175, "arah_hadap": "Utara", "arah_hadap_deg": 0}, "geometry": {"type": "Point", "coordinates": [110.1722254, -7.5499452]}}, {"type": "Feature", "properties": {"OBJECTID_1": 154, "kode_bangunan": 177, "arah_hadap": "Utara", "arah_hadap_deg": 0}, "geometry": {"type": "Point", "coordinates": [110.1722318, -7.5497628]}}, {"type": "Feature", "properties": {"OBJECTID_1": 155, "kode_bangunan": 178, "arah_hadap": "Utara", "arah_hadap_deg": 0}, "geometry": {"type": "Point", "coordinates": [110.1721612, -7.54971]}}, {"type": "Feature", "properties": {"OBJECTID_1": 156, "kode_bangunan": 179, "arah_hadap": "Utara", "arah_hadap_deg": 0}, "geometry": {"type": "Point", "coordinates": [110.1720433, -7.5496591]}}, {"type": "Feature", "properties": {"OBJECTID_1": 157, "kode_bangunan": 180, "arah_hadap": "Utara", "arah_hadap_deg": 0}, "geometry": {"type": "Point", "coordinates": [110.1718908, -7.5496375]}}, {"type": "Feature", "properties": {"OBJECTID_1": 158, "kode_bangunan": 181, "arah_hadap": "Timur", "arah_hadap_deg": 90}, "geometry": {"type": "Point", "coordinates": [110.1718395, -7.5497118]}}, {"type": "Feature", "properties": {"OBJECTID_1": 159, "kode_bangunan": 182, "arah_hadap": "Utara", "arah_hadap_deg": 0}, "geometry": {"type": "Point", "coordinates": [110.1718397, -7.5496072]}}, {"type": "Feature", "properties": {"OBJECTID_1": 160, "kode_bangunan": 183, "arah_hadap": "Utara", "arah_hadap_deg": 0}, "geometry": {"type": "Point", "coordinates": [110.1717712, -7.549575]}}, {"type": "Feature", "properties": {"OBJECTID_1": 161, "kode_bangunan": 184, "arah_hadap": "Utara", "arah_hadap_deg": 0}, "geometry": {"type": "Point", "coordinates": [110.1716854, -7.5497097]}}, {"type": "Feature", "properties": {"OBJECTID_1": 162, "kode_bangunan": 185, "arah_hadap": "Utara", "arah_hadap_deg": 0}, "geometry": {"type": "Point", "coordinates": [110.1716422, -7.5496187]}}, {"type": "Feature", "properties": {"OBJECTID_1": 163, "kode_bangunan": 187, "arah_hadap": "Selatan", "arah_hadap_deg": 180}, "geometry": {"type": "Point", "coordinates": [110.1724114, -7.5504363]}}, {"type": "Feature", "properties": {"OBJECTID_1": 164, "kode_bangunan": 188, "arah_hadap": "Utara", "arah_hadap_deg": 0}, "geometry": {"type": "Point", "coordinates": [110.1731226, -7.5534369]}}]}