{"type": "FeatureCollection", "features": [{"type": "Feature", "properties": {"LEFT_FID": -1, "RIGHT_FID": 1, "Shape_Leng": 2437.91582556}, "geometry": {"type": "Polygon", "coordinates": [[[110.1711358103114, -7.549077012073333], [110.1712698768359, -7.549197879087524], [110.17140837178698, -7.54930269808914], [110.17168185134875, -7.549464774340877], [110.17192279232138, -7.54953320738155], [110.17220051651644, -7.549612087110531], [110.17221598408669, -7.549615397875054], [110.17224507094839, -7.549621623355853], [110.17265737960275, -7.549713342701784], [110.17324350392353, -7.5498323125116915], [110.17363937455494, -7.549933229217091], [110.17367498947795, -7.549928853747831], [110.17409439950838, -7.550070242260067], [110.17429212733195, -7.55013343502291], [110.17439145467421, -7.550173741970106], [110.17547618939825, -7.550279393373435], [110.17543674737222, -7.550057692451553], [110.17543449003155, -7.5500450046198795], [110.17556065311899, -7.5502569759381775], [110.17557142507152, -7.550267765043525], [110.17567052349384, -7.550351492824169], [110.17609354059483, -7.550361624051447], [110.17631334884729, -7.5505429587240345], [110.17653387197879, -7.550726447322545], [110.1765356877931, -7.551034205844315], [110.1765383504742, -7.551372922816639], [110.17655567302032, -7.5513851289127985], [110.17655744718417, -7.5513863795397915], [110.17658233980455, -7.551403919171784], [110.17660458385058, -7.551419593287775], [110.17661149179436, -7.55146444065926], [110.17665832078387, -7.551768460762303], [110.17667447365652, -7.551873329909296], [110.17668194273537, -7.552045050263963], [110.1766819816624, -7.552214603038305], [110.17666816967555, -7.552323485884455], [110.17665909725338, -7.552395000779545], [110.1766024523157, -7.552578736641379], [110.17652900764706, -7.5525300690266], [110.17646819627188, -7.552482393920738], [110.17625597162791, -7.552359048215406], [110.17623102239503, -7.55235271771927], [110.17590780721551, -7.552585737068135], [110.17581073985399, -7.552670209963827], [110.1757694406404, -7.5529501266459445], [110.17574124507033, -7.553159771591833], [110.17544585884846, -7.553112247857581], [110.1750576349154, -7.553050454941962], [110.17498009230768, -7.5533860978920275], [110.17491862850886, -7.553636506457024], [110.1746122994786, -7.553592168759945], [110.17426609608032, -7.553542694886993], [110.17420677571019, -7.5534612163391], [110.17379721724974, -7.5534345961877785], [110.17359004837434, -7.5534169738485595], [110.17343782923618, -7.55346929957649], [110.17338750423619, -7.553489341741847], [110.17310461093959, -7.553440943729193], [110.17270961260559, -7.553387387501537], [110.1724492642254, -7.553338074838479], [110.17227665506195, -7.553306875958365], [110.17226114251312, -7.553290459143643], [110.17185393372723, -7.552951176499609], [110.17173534400887, -7.552848650141186], [110.17170064506848, -7.552804549610099], [110.17179859182278, -7.5527665372268835], [110.17199086420133, -7.552546735298889], [110.17207207723999, -7.552375744839045], [110.17210121543374, -7.552256037516283], [110.17208642334482, -7.552110172506666], [110.17205366421139, -7.551983150902053], [110.17202653878697, -7.551916843423023], [110.17195174567222, -7.551849831448559], [110.17176789132736, -7.551828733181729], [110.17154850265125, -7.55186385882982], [110.17127873020304, -7.552026526642141], [110.17120184777626, -7.552043817397255], [110.17110607367395, -7.552040025890142], [110.17105775233263, -7.551976601434666], [110.17101715870588, -7.551941823935502], [110.17098141711678, -7.551820903689961], [110.17100111022167, -7.551605016682531], [110.17092575994735, -7.551381981182102], [110.1708926064144, -7.551234294974221], [110.17092576142821, -7.551134833167744], [110.17101565592266, -7.551048056752533], [110.17118831720195, -7.550771596402199], [110.1712150856615, -7.550712110522655], [110.17121508613606, -7.550634778172099], [110.17120747155971, -7.550598609752607], [110.17120318773561, -7.550578266146052], [110.17114072793517, -7.550524728020759], [110.17109016541576, -7.5504949849724605], [110.17084032103729, -7.550432524924153], [110.17066985362112, -7.5504586303744805], [110.17060092141121, -7.550450721886313], [110.17056818726095, -7.550450654321168], [110.17052578005725, -7.5504292226061], [110.17050640660477, -7.550418905480428], [110.17049295855409, -7.550411743583942], [110.17044556053892, -7.550367141306988], [110.17044027053956, -7.550362073398143], [110.17043617027105, -7.550358144682395], [110.17041252587325, -7.550335489540763], [110.17040022833618, -7.5503205639407085], [110.17037310213522, -7.550287641738754], [110.17036275969146, -7.550275088689334], [110.17032183417808, -7.55023669439519], [110.17030467512762, -7.55020019308491], [110.17030522197906, -7.550154404704645], [110.17031849903228, -7.550119092694529], [110.17033870232628, -7.550088260168788], [110.17035960886116, -7.550066044171489], [110.17038621742225, -7.550046715252903], [110.17042866837741, -7.550040421961967], [110.1704689502773, -7.550039868012099], [110.17050295068003, -7.550054643964389], [110.17050462701764, -7.550055372541571], [110.17053989350585, -7.550070699011047], [110.17060309714547, -7.550118617262206], [110.17064143890435, -7.550134005639587], [110.17068367282332, -7.550128406554948], [110.17072689191647, -7.550100967893876], [110.17077011100449, -7.550073529227921], [110.1708724927539, -7.549697939983497], [110.17092065656968, -7.54959273422869], [110.17096306870305, -7.549493564923822], [110.17097106812011, -7.549411450373649], [110.17096839271413, -7.549342808641761], [110.17094935316686, -7.549266192699369], [110.17093044499062, -7.549237659296662], [110.17090965784091, -7.549206289489309], [110.17085176066189, -7.549133907871642], [110.1707616300721, -7.549112676884192], [110.17065467260073, -7.549137955899931], [110.17061162862038, -7.549161547228761], [110.17055304804309, -7.549190001409667], [110.17052355868464, -7.549186694727056], [110.1705047932158, -7.5491736580775095], [110.17049096559506, -7.549154994970168], [110.17048381495967, -7.549132247231267], [110.17048290197056, -7.549112411103133], [110.17048187705306, -7.549082821728512], [110.17048256138982, -7.549052857524668], [110.17049062192638, -7.549020979869777], [110.17053933375246, -7.548980155351858], [110.17066701015521, -7.548893116010276], [110.17080142850106, -7.548829235125], [110.17096370945106, -7.548779939370961], [110.17103745255754, -7.548909638241215], [110.17106505112693, -7.548958178996525], [110.1711358103114, -7.549077012073333]]]}}]}