{"type": "FeatureCollection", "features": [{"type": "Feature", "properties": {"Shape_Leng": 31.4214139535, "Sub_Unsur": "1", "Kelas": "4", "Toponim": ""}, "geometry": {"type": "LineString", "coordinates": [[110.17313784691108, -7.553396971904243], [110.1731554207605, -7.55341237505075], [110.17321354124883, -7.553428795614725], [110.17328361275575, -7.553441789095079], [110.17336749704619, -7.553464218042889], [110.17340663916528, -7.553481721508409]]}}, {"type": "Feature", "properties": {"Shape_Leng": 45.1987572721, "Sub_Unsur": "1", "Kelas": "4", "Toponim": ""}, "geometry": {"type": "LineString", "coordinates": [[110.17313784691108, -7.553396971904243], [110.17309275781194, -7.553417199417101], [110.17304648136155, -7.553420725210418], [110.17295878377895, -7.553413131545648], [110.1728801488029, -7.553400536955394], [110.17279305641652, -7.553392141223454], [110.17273493251223, -7.553384201934017]]}}, {"type": "Feature", "properties": {"Shape_Leng": 94.6600896932, "Sub_Unsur": "1", "Kelas": "4", "Toponim": "Jalan Tumenggung  Kertanegara"}, "geometry": {"type": "LineString", "coordinates": [[110.17321489861544, -7.552549266373395], [110.1731960804529, -7.552692578629372], [110.17319057124841, -7.55275892830128], [110.17317853020569, -7.552892215430826], [110.17315515923484, -7.5530431257624935], [110.17313672235069, -7.553182281726977], [110.17312725126877, -7.55325578016299], [110.17312271804335, -7.553315074903045], [110.17312264070505, -7.553355753872389], [110.17313784691108, -7.553396971904243]]}}, {"type": "Feature", "properties": {"Shape_Leng": 53.5169006946, "Sub_Unsur": "1", "Kelas": "4", "Toponim": ""}, "geometry": {"type": "LineString", "coordinates": [[110.17273790154994, -7.552464613591513], [110.17279541612184, -7.5524687999192395], [110.1729035193858, -7.552483433835887], [110.17301120681736, -7.5525046407206355], [110.1731338730543, -7.552530769186548], [110.17321489861544, -7.552549266373395]]}}, {"type": "Feature", "properties": {"Shape_Leng": 177.709248525, "Sub_Unsur": "1", "Kelas": "4", "Toponim": "Jalan Tumenggung  Kertanegara"}, "geometry": {"type": "LineString", "coordinates": [[110.17321489861544, -7.552549266373395], [110.17323101207539, -7.5524398137395305], [110.17324688286195, -7.552331659481859], [110.17325545051138, -7.552216989977256], [110.17325216906163, -7.55213464506899], [110.17324349765654, -7.552045428552233], [110.17322409289666, -7.551918453076192], [110.17321828431217, -7.5518738420300995], [110.17321591925544, -7.551826297027175], [110.17321796723706, -7.551782191079901], [110.17324031176454, -7.551654315060176], [110.17327251139459, -7.551509793493051], [110.17329182634836, -7.551425040193749], [110.17331414751784, -7.551309906475757], [110.17334739016803, -7.551133039844382], [110.17339142014961, -7.550965505268072]]}}, {"type": "Feature", "properties": {"Shape_Leng": 38.5956227945, "Sub_Unsur": "1", "Kelas": "4", "Toponim": "Jalan Tumenggung  Kertanegara"}, "geometry": {"type": "LineString", "coordinates": [[110.17339142014961, -7.550965505268072], [110.17343203576033, -7.550801763051689], [110.1734807127432, -7.550628018927166]]}}, {"type": "Feature", "properties": {"Shape_Leng": 78.9233875499, "Sub_Unsur": "1", "Kelas": "4", "Toponim": "Jalan Tumenggung  Kertanegara"}, "geometry": {"type": "LineString", "coordinates": [[110.1734807127432, -7.550628018927166], [110.17351789310415, -7.550446595691933], [110.17354582816974, -7.550284299250295], [110.17360470706336, -7.549991876364708], [110.1736144020126, -7.549926863270694]]}}, {"type": "Feature", "properties": {"Shape_Leng": 423.398756325, "Sub_Unsur": "1", "Kelas": "4", "Toponim": "Jalan H Yasin"}, "geometry": {"type": "LineString", "coordinates": [[110.1734807127432, -7.550628018927166], [110.17353046824155, -7.550678564205488], [110.17359474398413, -7.5507120132706245], [110.1737032354817, -7.550739174771742], [110.1738627683744, -7.550786036528463], [110.173959477916, -7.550810235216808], [110.17406451758417, -7.5508447408414785], [110.17417102642905, -7.550881211043601], [110.17433740647192, -7.550943279088741], [110.17445667618358, -7.550984673831595], [110.17459999843675, -7.551032975395415], [110.17470209620153, -7.551065025074381], [110.17480320123128, -7.55110246448096], [110.17499412898331, -7.551169480053837], [110.1751204105078, -7.55121192712043], [110.1752630301835, -7.551257992176977], [110.1754466768354, -7.551321289057033], [110.17558705173978, -7.551370074082498], [110.17568767031534, -7.551405062135706], [110.17576080398108, -7.551430195521317], [110.17579809008164, -7.55145183056176], [110.1758230806046, -7.55148226473579], [110.17583925246237, -7.551501409694329], [110.17586127867582, -7.551541149932349], [110.17589403940923, -7.551618159764226], [110.17593512568764, -7.551707926758833], [110.17597428498694, -7.551777597014545], [110.17599386509589, -7.551812431237871], [110.17605360840963, -7.551905665026558], [110.17613195215397, -7.552031771164879], [110.17619661097241, -7.552123054194042], [110.17623090128373, -7.552170659419691], [110.17626549415091, -7.552224107273296], [110.17631851946288, -7.552275648859589], [110.17635741535425, -7.552318382168444], [110.17639696404757, -7.55234856880432], [110.17644751068936, -7.552381286113973], [110.17649520232969, -7.552426857984396], [110.17652970871902, -7.552464250170156], [110.17655727143156, -7.5525163714430334], [110.17656973982837, -7.552557060531291]]}}, {"type": "Feature", "properties": {"Shape_Leng": 99.5084844554, "Sub_Unsur": "1", "Kelas": "4", "Toponim": "Jalan Rsoesiswo"}, "geometry": {"type": "LineString", "coordinates": [[110.1733932195241, -7.5509582511008615], [110.17330266124915, -7.550940955182201], [110.1731065596107, -7.55091910442025], [110.17290337110995, -7.550887144318432], [110.1727310206671, -7.550865743562725], [110.17257733371208, -7.550843887856489], [110.17250024413212, -7.5508334497472696]]}}, {"type": "Feature", "properties": {"Shape_Leng": 123.757690046, "Sub_Unsur": "1", "Kelas": "4", "Toponim": "Jalan Rsoesiswo"}, "geometry": {"type": "LineString", "coordinates": [[110.17250024413212, -7.5508334497472696], [110.17251967356252, -7.550741935700173], [110.17254529543193, -7.550621356969147], [110.1725655157284, -7.5505200389164875], [110.17258935740969, -7.550395173177009], [110.17260272073781, -7.550326319400323], [110.17263221858316, -7.5502360834469755], [110.17266819383991, -7.550125158855079], [110.1726959114963, -7.550030636796669], [110.1727309099012, -7.549869033073515], [110.17276112898885, -7.54974599287395]]}}, {"type": "Feature", "properties": {"Shape_Leng": 211.868669444, "Sub_Unsur": "1", "Kelas": "4", "Toponim": "Jalan Rsoesiswo"}, "geometry": {"type": "LineString", "coordinates": [[110.17200023580946, -7.549555202813868], [110.17197565447897, -7.549616687292441], [110.17192983318043, -7.549751810682114], [110.17189546070077, -7.549855846077486], [110.17187007771675, -7.5499622917661995], [110.17183501156704, -7.550115982841876], [110.17180117391173, -7.5502547197140935], [110.17178300422468, -7.550351008155811], [110.17174257644292, -7.550486740497843], [110.17172860102342, -7.55058423351527], [110.17173450110523, -7.550634500469036], [110.17174766466012, -7.550648286221731], [110.17178899551082, -7.550668107616206], [110.1718956361519, -7.550708992473846], [110.17198489641063, -7.55074625447783], [110.17204420567242, -7.550770298580886], [110.17210053368899, -7.550785361845447], [110.17222399917043, -7.550806535460479], [110.17250024413212, -7.5508334497472696]]}}, {"type": "Feature", "properties": {"Shape_Leng": 61.3648846022, "Sub_Unsur": "1", "Kelas": "4", "Toponim": "Jalan KH Sodik"}, "geometry": {"type": "LineString", "coordinates": [[110.1736144020126, -7.549926863270694], [110.17360691070361, -7.5499249533064745], [110.17324350392353, -7.5498323125116915], [110.17314606204516, -7.549812534322702], [110.17307257878922, -7.549804190702785]]}}, {"type": "Feature", "properties": {"Shape_Leng": 34.9736455934, "Sub_Unsur": "1", "Kelas": "4", "Toponim": "Jalan KH Sodik"}, "geometry": {"type": "LineString", "coordinates": [[110.17307257878922, -7.549804190702785], [110.1729832732872, -7.549791245868766], [110.17290166490936, -7.549775408578067], [110.17281962463181, -7.54975695559506], [110.17276112898885, -7.54974599287395]]}}, {"type": "Feature", "properties": {"Shape_Leng": 86.6095347629, "Sub_Unsur": "1", "Kelas": "4", "Toponim": "Jalan KH Sodik"}, "geometry": {"type": "LineString", "coordinates": [[110.17276112898885, -7.54974599287395], [110.1726289217865, -7.549715207228591], [110.1725521163033, -7.54969894300851], [110.17249102175651, -7.549685757539559], [110.17241771439055, -7.549666450005229], [110.17235456025774, -7.549652459245721], [110.17228110868228, -7.549635590806669], [110.17220793574883, -7.549619002368887], [110.17215264543206, -7.54960216831274], [110.17200023580946, -7.549555202813868]]}}, {"type": "Feature", "properties": {"Shape_Leng": 148.665506991, "Sub_Unsur": "1", "Kelas": "4", "Toponim": "Jalan KH Sodik"}, "geometry": {"type": "LineString", "coordinates": [[110.17200023580946, -7.549555202813868], [110.17198895283705, -7.549551998559863], [110.17198358900913, -7.5495504751966305], [110.17192279232138, -7.54953320738155], [110.17168185134875, -7.549464774340877], [110.17140837178698, -7.54930269808914], [110.1712698768359, -7.549197879087524], [110.1711358103114, -7.549077012073333], [110.17106505112693, -7.548958178996525], [110.17103745255754, -7.548909638241215], [110.17096370945106, -7.548779939370961]]}}]}