{
"type": "FeatureCollection",
"name": "perkebunan_tegalsari",
"crs": { "type": "name", "properties": { "name": "urn:ogc:def:crs:OGC:1.3:CRS84" } },
"features": [
{ "type": "Feature", "properties": { "DUSUN": "Wareng", "JENIS_KEBUN": "Kebun Campuran Milik Warga", "Shape_Area": 1487.89681627, "LUAS_M2": 1487.9, "LUAS_HA": 0.1488 }, "geometry": { "type": "Polygon", "coordinates": [ [ [ 110.174574188634068, -7.553236605169975 ], [ 110.174581206768735, -7.553328354733512 ], [ 110.174578649490158, -7.553412108659415 ], [ 110.174572159501963, -7.553462352191935 ], [ 110.17457037289229, -7.553561263997685 ], [ 110.174570523162217, -7.553586199073201 ], [ 110.174266096080075, -7.553542695050626 ], [ 110.174206775706509, -7.553461218311702 ], [ 110.174212468318728, -7.553443324832238 ], [ 110.174230857548466, -7.553441764092151 ], [ 110.174243671905401, -7.553429025158667 ], [ 110.174255032776287, -7.553339703607018 ], [ 110.174270499876329, -7.553192955140294 ], [ 110.174278596636668, -7.553139525445054 ], [ 110.17429297715303, -7.55314354049679 ], [ 110.174335311381626, -7.55316116930646 ], [ 110.174439972486937, -7.553192477741724 ], [ 110.174507073896763, -7.553217334039783 ], [ 110.174551806460499, -7.553234967362872 ], [ 110.174574188634068, -7.553236605169975 ] ] ] } },
{ "type": "Feature", "properties": { "DUSUN": "Tegalsari", "JENIS_KEBUN": "Kebun Campuran Milik Warga", "Shape_Area": 344.86190694599998, "LUAS_M2": 344.86, "LUAS_HA": 0.0345 }, "geometry": { "type": "Polygon", "coordinates": [ [ [ 110.171189178952972, -7.549544524725625 ], [ 110.171189110262361, -7.549544422388817 ], [ 110.171120476518553, -7.549540247362348 ], [ 110.171113009562774, -7.549538411570959 ], [ 110.17109595065665, -7.54948785391317 ], [ 110.171057333310443, -7.549331191215124 ], [ 110.171098793025806, -7.549313731941877 ], [ 110.171161176515312, -7.54929589447932 ], [ 110.171207815489097, -7.549415408101479 ], [ 110.171234871929926, -7.549490204951465 ], [ 110.171189178952972, -7.549544524725625 ] ] ] } },
{ "type": "Feature", "properties": { "DUSUN": "Tegalsari", "JENIS_KEBUN": "Kebun Campuran Milik Warga", "Shape_Area": 506.68802380599999, "LUAS_M2": 506.69, "LUAS_HA": 0.0507 }, "geometry": { "type": "Polygon", "coordinates": [ [ [ 110.171875788429944, -7.549878230180998 ], [ 110.17187236804331, -7.549881868764044 ], [ 110.171866210128854, -7.549901821740307 ], [ 110.17186147242036, -7.549918020186885 ], [ 110.171854579372123, -7.549953239437518 ], [ 110.171847163901717, -7.550004353076598 ], [ 110.171816767502662, -7.550059447202367 ], [ 110.171816327227873, -7.550059326071696 ], [ 110.171764546981535, -7.550045052874282 ], [ 110.17174372363877, -7.550039312449518 ], [ 110.171742446422684, -7.550038895775466 ], [ 110.171709558560437, -7.550028167775152 ], [ 110.171697785550563, -7.550024314974126 ], [ 110.171703830457673, -7.550012308571797 ], [ 110.171722646002181, -7.549962414081515 ], [ 110.171553631153245, -7.549876948392149 ], [ 110.171593505209543, -7.549795915411408 ], [ 110.171788225430348, -7.549861754593344 ], [ 110.171806232772752, -7.549869316732976 ], [ 110.171875788429944, -7.549878230180998 ] ] ] } },
{ "type": "Feature", "properties": { "DUSUN": "Tegalsari", "JENIS_KEBUN": "Kebun Campuran Milik Warga", "Shape_Area": 714.82665813699998, "LUAS_M2": 714.83, "LUAS_HA": 0.0715 }, "geometry": { "type": "Polygon", "coordinates": [ [ [ 110.171284592902708, -7.551186656278063 ], [ 110.171286501998409, -7.551205090539637 ], [ 110.171377750855939, -7.551205263615313 ], [ 110.171370835249164, -7.551234682360646 ], [ 110.171334063968189, -7.551234612616403 ], [ 110.171295672545355, -7.55124570744161 ], [ 110.171273192025453, -7.551296718314681 ], [ 110.171237985271446, -7.551314201203584 ], [ 110.171194839782927, -7.551302950805226 ], [ 110.171138907283932, -7.551290081540794 ], [ 110.171065318211632, -7.551313873622517 ], [ 110.171017394360121, -7.551293042002883 ], [ 110.170993495211576, -7.551249920677156 ], [ 110.171015239849609, -7.551204575912392 ], [ 110.171003128686408, -7.55120455293167 ], [ 110.171017613241673, -7.551178173145904 ], [ 110.171048002104669, -7.551171848778099 ], [ 110.171068841214591, -7.551143170998899 ], [ 110.171065707312735, -7.551109661213014 ], [ 110.171081777168951, -7.551066615724467 ], [ 110.171125044213355, -7.551014049695297 ], [ 110.171176217450082, -7.551007764748126 ], [ 110.171185727694038, -7.551050858768735 ], [ 110.171190430080784, -7.551100325697132 ], [ 110.171219125850968, -7.551143456112752 ], [ 110.171265456908131, -7.551161093673986 ], [ 110.171284592902708, -7.551186656278063 ] ] ] } },
{ "type": "Feature", "properties": { "DUSUN": "Tegalsari", "JENIS_KEBUN": "Kebun Ketela Milik Warga", "Shape_Area": 209.3516353, "LUAS_M2": 209.35, "LUAS_HA": 0.0209 }, "geometry": { "type": "Polygon", "coordinates": [ [ [ 110.172752660494211, -7.550695226366503 ], [ 110.172752988846213, -7.55072894701389 ], [ 110.172715256839865, -7.550735540705622 ], [ 110.172687298150791, -7.550768031058911 ], [ 110.172714790405379, -7.550773964063085 ], [ 110.172721404132105, -7.550808872438981 ], [ 110.172707245619719, -7.550815903309782 ], [ 110.172679753202758, -7.550809577759 ], [ 110.172647918996077, -7.550813830956465 ], [ 110.172618445288691, -7.55081651934393 ], [ 110.172601956262909, -7.550809822984335 ], [ 110.172595712803755, -7.550787069749088 ], [ 110.172592588837404, -7.550776869407126 ], [ 110.172585137086458, -7.550769405974737 ], [ 110.172570819788376, -7.55077223521761 ], [ 110.172561562097229, -7.550769752969586 ], [ 110.172560791170937, -7.550761910548012 ], [ 110.172570656946448, -7.550739187820302 ], [ 110.172574271060384, -7.550698025319914 ], [ 110.172575072556825, -7.550689793330604 ], [ 110.172613191968878, -7.550686336226384 ], [ 110.172639856039567, -7.55071500907838 ], [ 110.172656004786845, -7.550694259164492 ], [ 110.172681927010842, -7.550699797556137 ], [ 110.172729495120421, -7.550686556452294 ], [ 110.172752660494211, -7.550695226366503 ] ] ] } },
{ "type": "Feature", "properties": { "DUSUN": "Tegalsari", "JENIS_KEBUN": "Kebun Campuran Milik Warga", "Shape_Area": 142.726602759, "LUAS_M2": 142.73, "LUAS_HA": 0.0143 }, "geometry": { "type": "Polygon", "coordinates": [ [ [ 110.172518731584447, -7.550603378166269 ], [ 110.172515020061354, -7.550618074409749 ], [ 110.172475129682397, -7.550610033984266 ], [ 110.172427867524789, -7.550604430740944 ], [ 110.172393458851118, -7.55062029441294 ], [ 110.172365199239181, -7.550629430428581 ], [ 110.172344337692252, -7.5506232648495 ], [ 110.172343090108455, -7.550614893307071 ], [ 110.172337876013927, -7.550579915221384 ], [ 110.172367163382503, -7.55056510733351 ], [ 110.172441495958424, -7.550540129737318 ], [ 110.172448660213888, -7.550539101342462 ], [ 110.172470972583227, -7.550535897413248 ], [ 110.17249191571338, -7.55054301103856 ], [ 110.172512693083775, -7.550550067366572 ], [ 110.172528637996834, -7.550559287109516 ], [ 110.172518731584447, -7.550603378166269 ] ] ] } },
{ "type": "Feature", "properties": { "DUSUN": "Tegalsari", "JENIS_KEBUN": "Kebun Ketela Milik Warga", "Shape_Area": 231.33218365499999, "LUAS_M2": 231.33, "LUAS_HA": 0.0231 }, "geometry": { "type": "Polygon", "coordinates": [ [ [ 110.1723019050944, -7.55036164151564 ], [ 110.172312420077702, -7.550374056466262 ], [ 110.17230883205022, -7.550401496199428 ], [ 110.172292478009297, -7.550407710673042 ], [ 110.172292795323571, -7.550422916534075 ], [ 110.172293531315461, -7.550458172857883 ], [ 110.172293771350681, -7.550469690996247 ], [ 110.172285486942343, -7.550487319047915 ], [ 110.172214770652872, -7.550482872504524 ], [ 110.172189664127998, -7.550461651901644 ], [ 110.172159844977941, -7.550439638182215 ], [ 110.172145836413378, -7.550421693837386 ], [ 110.172135934664794, -7.550409010509211 ], [ 110.172139132474783, -7.550380394211746 ], [ 110.172162764298591, -7.550350639897563 ], [ 110.17217058089777, -7.550372611930324 ], [ 110.172194178404126, -7.55036089383976 ], [ 110.172197370241847, -7.550335414276246 ], [ 110.172211934637005, -7.550321326511014 ], [ 110.172246090515756, -7.550335898217536 ], [ 110.172260590760644, -7.550355530351177 ], [ 110.172301443871092, -7.550361097047796 ], [ 110.1723019050944, -7.55036164151564 ] ] ] } },
{ "type": "Feature", "properties": { "DUSUN": "Tegalsari", "JENIS_KEBUN": "Sawah Milik Warga (Padi)", "Shape_Area": 18613.713966300002, "LUAS_M2": 18613.71, "LUAS_HA": 1.8614 }, "geometry": { "type": "Polygon", "coordinates": [ [ [ 110.175710900304182, -7.551837957553905 ], [ 110.175717917124388, -7.551881263895202 ], [ 110.175752200262693, -7.551916830462724 ], [ 110.175824494305274, -7.551962262489967 ], [ 110.175910270615034, -7.5520150652513 ], [ 110.175998506598049, -7.552064200434373 ], [ 110.17605485969159, -7.552105929251438 ], [ 110.176142970508764, -7.552221171066801 ], [ 110.176195597316195, -7.552287377211347 ], [ 110.1762088476885, -7.552309508682489 ], [ 110.176199010532457, -7.552330592636981 ], [ 110.175828919597805, -7.552133863115499 ], [ 110.175702457505338, -7.552490246953441 ], [ 110.175545713958002, -7.55241116792336 ], [ 110.175516772937826, -7.552378554610096 ], [ 110.175492619996419, -7.55237006747835 ], [ 110.175452774851621, -7.552351903505251 ], [ 110.175427425122152, -7.552337384824845 ], [ 110.175370570736064, -7.552367424835718 ], [ 110.175324652487816, -7.552366132473335 ], [ 110.175264193101498, -7.552385312767546 ], [ 110.175170536499053, -7.552391366012222 ], [ 110.175140161492706, -7.552391308655677 ], [ 110.175112173909824, -7.552396042331107 ], [ 110.175083405043466, -7.552391201477904 ], [ 110.175009093643069, -7.552374310107895 ], [ 110.174949949476982, -7.552368614123724 ], [ 110.174810092376617, -7.55234920474983 ], [ 110.174711010844476, -7.552326682258585 ], [ 110.174637476211714, -7.552321756799517 ], [ 110.174571177995574, -7.552294509694041 ], [ 110.174558442698768, -7.552266565137352 ], [ 110.174549882194256, -7.552248684513507 ], [ 110.174461625547409, -7.552177089790573 ], [ 110.174341484097567, -7.552095781240386 ], [ 110.174154801163112, -7.551999413855031 ], [ 110.173654271693977, -7.551710537823221 ], [ 110.173675898922269, -7.551679639985171 ], [ 110.173717169755761, -7.551617590915657 ], [ 110.173761082983617, -7.55155396761088 ], [ 110.173823502071258, -7.551469319313319 ], [ 110.173880647041244, -7.551383607308064 ], [ 110.174003403102887, -7.551199037234933 ], [ 110.174026182674979, -7.551129750765713 ], [ 110.174087069860221, -7.550994482834854 ], [ 110.174135830037969, -7.5508861392348 ], [ 110.174177102079327, -7.550901688431884 ], [ 110.174190327567075, -7.550953567450337 ], [ 110.174232382030226, -7.55101485693191 ], [ 110.174299363116802, -7.551072368461152 ], [ 110.174343370920425, -7.551114533615535 ], [ 110.174316429273617, -7.551169954653902 ], [ 110.174266547897517, -7.551192814354269 ], [ 110.174266435349381, -7.5512521120588 ], [ 110.174262401388859, -7.551309687451377 ], [ 110.174310673948185, -7.551336486266287 ], [ 110.174311353326274, -7.551370612796339 ], [ 110.174357018018711, -7.551400374287644 ], [ 110.174376538151279, -7.55140607686039 ], [ 110.174388967877206, -7.551409708333684 ], [ 110.174402814773984, -7.551419296697675 ], [ 110.174477483837222, -7.551443919445639 ], [ 110.174610014546488, -7.551492791257089 ], [ 110.174675377729258, -7.551516919729198 ], [ 110.174727325723111, -7.551536096130087 ], [ 110.174783363223654, -7.551556782596806 ], [ 110.174845602463762, -7.55157975825966 ], [ 110.174868608749136, -7.551588250491625 ], [ 110.174912227950969, -7.55159306965392 ], [ 110.174947299841563, -7.551596944670017 ], [ 110.174959060694903, -7.551598646506487 ], [ 110.175070234118138, -7.55163416024121 ], [ 110.175097342409657, -7.551643309626683 ], [ 110.175185001228343, -7.551658776283081 ], [ 110.175245185333424, -7.551678606741729 ], [ 110.175307767563012, -7.551705236198974 ], [ 110.175381422749993, -7.551729241840048 ], [ 110.175469056780031, -7.551757804410975 ], [ 110.175515681886708, -7.551773000900358 ], [ 110.175578352624157, -7.551796468414839 ], [ 110.17558383858956, -7.55179861244419 ], [ 110.175584746150349, -7.551798953338185 ], [ 110.175585562230793, -7.551799259689182 ], [ 110.175586501492973, -7.551799612401281 ], [ 110.175589860915565, -7.551800875068515 ], [ 110.175596039029415, -7.551803196778181 ], [ 110.17563342563281, -7.551817246121733 ], [ 110.175655941419549, -7.551825828742332 ], [ 110.175666651228923, -7.551829730994613 ], [ 110.175678898004861, -7.551830910033643 ], [ 110.175680835095577, -7.55183132161088 ], [ 110.175693020672398, -7.551832270795243 ], [ 110.175703883636459, -7.551833316976829 ], [ 110.175710900304182, -7.551837957553905 ] ] ] } },
{ "type": "Feature", "properties": { "DUSUN": "Tegalsari", "JENIS_KEBUN": "Kebun Campuran Milik Warga", "Shape_Area": 1923.9197589299999, "LUAS_M2": 1923.92, "LUAS_HA": 0.1924 }, "geometry": { "type": "Polygon", "coordinates": [ [ [ 110.172669585182263, -7.551285324615701 ], [ 110.172710503471023, -7.551290507906393 ], [ 110.172812799044408, -7.55130473917613 ], [ 110.172838101835183, -7.551308584102201 ], [ 110.172834700701586, -7.551340707607337 ], [ 110.172836136863793, -7.551356209544729 ], [ 110.172824691273377, -7.551444700566236 ], [ 110.172808662277276, -7.551462997752819 ], [ 110.172791860730541, -7.55155486230119 ], [ 110.172783982469127, -7.551662056638742 ], [ 110.172784434181509, -7.551670463757517 ], [ 110.172786452930268, -7.55170800904456 ], [ 110.172794005981387, -7.551771841846176 ], [ 110.172816858404616, -7.55186122812291 ], [ 110.17283213988209, -7.551895716045276 ], [ 110.172861362020242, -7.551999153764316 ], [ 110.172866569600359, -7.552048546578458 ], [ 110.172854870062437, -7.552048920589442 ], [ 110.172808807812117, -7.552059044076394 ], [ 110.172752521212402, -7.552064042391006 ], [ 110.172716750074017, -7.552042277011695 ], [ 110.172679702449514, -7.55201923298712 ], [ 110.172649059125177, -7.551991095283737 ], [ 110.172650406011101, -7.551955360815048 ], [ 110.172660749914058, -7.551896669522587 ], [ 110.172621199398492, -7.55184426486097 ], [ 110.172615877746594, -7.55166090255266 ], [ 110.172587022785535, -7.551656580553028 ], [ 110.172528304648409, -7.551595205101519 ], [ 110.172591205148336, -7.551475349116374 ], [ 110.172590096155972, -7.551386004014008 ], [ 110.172605655232019, -7.551274991031383 ], [ 110.172669585182263, -7.551285324615701 ] ] ] } },
{ "type": "Feature", "properties": { "DUSUN": "Tegalsari", "JENIS_KEBUN": "Sawah Milik Warga (Padi)", "Shape_Area": 1840.4070592400001, "LUAS_M2": 1840.41, "LUAS_HA": 0.184 }, "geometry": { "type": "Polygon", "coordinates": [ [ [ 110.175007867559259, -7.553265884094722 ], [ 110.174980092307436, -7.553386098055658 ], [ 110.174918628508621, -7.553636506620657 ], [ 110.174871232390515, -7.553629647023944 ], [ 110.174768603788138, -7.553614792354386 ], [ 110.174750759906246, -7.553612209805001 ], [ 110.174612299478341, -7.553592168923579 ], [ 110.174575387385559, -7.553586893864355 ], [ 110.174570523162217, -7.553586199073201 ], [ 110.17457037289229, -7.553561263997685 ], [ 110.174572159501963, -7.553462352191935 ], [ 110.174578649490158, -7.553412108659415 ], [ 110.174581206768735, -7.553328354733512 ], [ 110.174574188634068, -7.553236605169975 ], [ 110.174600608886379, -7.55321431979117 ], [ 110.174636574870576, -7.553217578773145 ], [ 110.174714915370799, -7.553217726803851 ], [ 110.174762860836651, -7.553227389539545 ], [ 110.174866763421662, -7.553237157985081 ], [ 110.174936310098829, -7.553237289363521 ], [ 110.174981857254977, -7.553246948449999 ], [ 110.175007867559259, -7.553265884094722 ] ] ] } },
{ "type": "Feature", "properties": { "DUSUN": "Tegalsari", "JENIS_KEBUN": "Kebun Kacang Panjang Milik Warga", "Shape_Area": 1362.0741805, "LUAS_M2": 1362.07, "LUAS_HA": 0.1362 }, "geometry": { "type": "Polygon", "coordinates": [ [ [ 110.17389108569202, -7.553037484265182 ], [ 110.173886172099529, -7.553098099755354 ], [ 110.173878043770344, -7.553169079967093 ], [ 110.173861021605219, -7.553292691502877 ], [ 110.173853694826647, -7.553362078625304 ], [ 110.173842530596886, -7.553437543850055 ], [ 110.173838877361561, -7.553437306296632 ], [ 110.173797217249501, -7.553434596351412 ], [ 110.173590048374095, -7.553416974012191 ], [ 110.173559558110682, -7.553427455355175 ], [ 110.173576152541784, -7.553310049594184 ], [ 110.173587532653286, -7.553311799593505 ], [ 110.17359808439403, -7.553228598082143 ], [ 110.173616813082859, -7.553139486772716 ], [ 110.17362242417127, -7.553105832532992 ], [ 110.173640182604345, -7.553024087303557 ], [ 110.173647661499587, -7.552995823697269 ], [ 110.173652309929537, -7.552997028217998 ], [ 110.173693692525092, -7.553006001192178 ], [ 110.173776820512415, -7.553010942254538 ], [ 110.17389108569202, -7.553037484265182 ] ] ] } },
{ "type": "Feature", "properties": { "DUSUN": "Tegalsari", "JENIS_KEBUN": "Kebun Ketela Milik Desa", "Shape_Area": 13315.1014271, "LUAS_M2": 13315.1, "LUAS_HA": 1.3315 }, "geometry": { "type": "Polygon", "coordinates": [ [ [ 110.174549882194256, -7.552248684513507 ], [ 110.174558442698768, -7.552266565137352 ], [ 110.174571177995574, -7.552294509694041 ], [ 110.174637476211714, -7.552321756799517 ], [ 110.174711010844476, -7.552326682258585 ], [ 110.174810092376617, -7.55234920474983 ], [ 110.174949949476982, -7.552368614123724 ], [ 110.175009093643069, -7.552374310107895 ], [ 110.175083405043466, -7.552391201477904 ], [ 110.175112173909824, -7.552396042331107 ], [ 110.175140161492706, -7.552391308655677 ], [ 110.175170536499053, -7.552391366012222 ], [ 110.175193667548072, -7.552420128843611 ], [ 110.175178356317005, -7.552483914849646 ], [ 110.175141311093, -7.552628229378572 ], [ 110.175105895577815, -7.552755795947749 ], [ 110.175090546792816, -7.552840323487158 ], [ 110.175065628336441, -7.552912867542314 ], [ 110.175058215523521, -7.553027722919375 ], [ 110.175057636724517, -7.553050456917964 ], [ 110.174951829925078, -7.553062621357622 ], [ 110.174847100697917, -7.553067210046167 ], [ 110.174758380532538, -7.55306066039776 ], [ 110.174693719345115, -7.553061971831012 ], [ 110.174670215777226, -7.553056612677099 ], [ 110.174549832041038, -7.553011606036198 ], [ 110.174499489196108, -7.553001938749178 ], [ 110.17448278810933, -7.553002803527747 ], [ 110.174453916449423, -7.552997188197829 ], [ 110.174362849369871, -7.55297216539439 ], [ 110.174304510635892, -7.552963280725719 ], [ 110.174293166220664, -7.552996204173403 ], [ 110.17427797650889, -7.553044596057258 ], [ 110.174247474554321, -7.553109952420564 ], [ 110.174130807061445, -7.553087393822523 ], [ 110.174029324679779, -7.553065664377735 ], [ 110.173934229637126, -7.553048732610161 ], [ 110.17389108569202, -7.553037484265182 ], [ 110.173776820512415, -7.553010942254538 ], [ 110.173693692525092, -7.553006001192178 ], [ 110.173652309929537, -7.552997028217998 ], [ 110.173647661499587, -7.552995823697269 ], [ 110.17364213429822, -7.552994391393207 ], [ 110.173649841384176, -7.552962427074148 ], [ 110.173655829079635, -7.552937595872652 ], [ 110.173675624556893, -7.552863279394301 ], [ 110.173696497590129, -7.552791422432806 ], [ 110.173690159970434, -7.552761894450362 ], [ 110.173691834616847, -7.552722012631889 ], [ 110.173711919675725, -7.552669401575789 ], [ 110.173723250310857, -7.55259603416295 ], [ 110.173699038040837, -7.552592076473151 ], [ 110.173718626355722, -7.55252612154275 ], [ 110.173720226820805, -7.552504293063869 ], [ 110.173721092932709, -7.552469195334587 ], [ 110.173724352511314, -7.552435698545172 ], [ 110.173754705902809, -7.552286321797435 ], [ 110.173771974606026, -7.552190367103204 ], [ 110.173779425560113, -7.552154847675413 ], [ 110.174106297442336, -7.552207004141709 ], [ 110.174226267656252, -7.552224283165894 ], [ 110.174230349004191, -7.552224838093431 ], [ 110.174349260720319, -7.55224585421728 ], [ 110.174451168149758, -7.552263226573189 ], [ 110.174510496405162, -7.552275546500998 ], [ 110.174549882194256, -7.552248684513507 ] ] ] } },
{ "type": "Feature", "properties": { "DUSUN": "Gunung Bakal", "JENIS_KEBUN": "Kebun Tebu Milik Desa", "Shape_Area": 27803.312857299999, "LUAS_M2": 27803.31, "LUAS_HA": 2.7803 }, "geometry": { "type": "Polygon", "coordinates": [ [ [ 110.17567052168252, -7.550351492079831 ], [ 110.175800825247904, -7.550386963003559 ], [ 110.175874951921429, -7.550394039307932 ], [ 110.175951307752626, -7.550447358813912 ], [ 110.176111004680976, -7.550535516082227 ], [ 110.176259188070262, -7.550586659115524 ], [ 110.176349946585972, -7.550573408581242 ], [ 110.176511562737801, -7.550707884326252 ], [ 110.176535297497153, -7.550967931038891 ], [ 110.17653568779285, -7.551034206007894 ], [ 110.176538232219386, -7.551357823306843 ], [ 110.176160406477052, -7.551395758673215 ], [ 110.176095875086148, -7.551399009798479 ], [ 110.176038308435153, -7.551404646510187 ], [ 110.175845166982626, -7.551409388008589 ], [ 110.175765214012827, -7.55141561739968 ], [ 110.175674083766836, -7.551373339944482 ], [ 110.175523892956321, -7.551321503688592 ], [ 110.175348658551044, -7.551267276597517 ], [ 110.17518518185463, -7.551204479950804 ], [ 110.174972412934238, -7.551130654059298 ], [ 110.174748684369902, -7.551057588843775 ], [ 110.174540596796277, -7.550991582716697 ], [ 110.174205819349069, -7.550864411072312 ], [ 110.174021994836821, -7.550800013521144 ], [ 110.173886035961388, -7.55075473672905 ], [ 110.173909107178758, -7.550676008011713 ], [ 110.173937705116614, -7.550578416795951 ], [ 110.173979686989455, -7.550364236771286 ], [ 110.173978878868496, -7.550326796876946 ], [ 110.173976214878053, -7.550282929834744 ], [ 110.173969389683847, -7.550260529164921 ], [ 110.173953460135124, -7.550209782871006 ], [ 110.173936161100158, -7.550177621116475 ], [ 110.173959458357288, -7.550039956694938 ], [ 110.173968343310193, -7.550027747592453 ], [ 110.174094399508135, -7.550070242423625 ], [ 110.174292127331711, -7.550133435186472 ], [ 110.174344141272627, -7.550154542811117 ], [ 110.174391454673952, -7.550173742133666 ], [ 110.175476189397997, -7.550279393536997 ], [ 110.175436747371975, -7.550057692615108 ], [ 110.175434490031307, -7.550045004783438 ], [ 110.175560653118737, -7.550256976101739 ], [ 110.175571425071283, -7.55026776520709 ], [ 110.17567052168252, -7.550351492079831 ] ] ] } },
{ "type": "Feature", "properties": { "DUSUN": "Tegalsari", "JENIS_KEBUN": "Kebun Tebu Milik Desa", "Shape_Area": 8202.7339647400004, "LUAS_M2": 8202.73, "LUAS_HA": 0.8203 }, "geometry": { "type": "Polygon", "coordinates": [ [ [ 110.175171289360009, -7.55165635713142 ], [ 110.175139836240177, -7.551650807530783 ], [ 110.175097342409657, -7.551643309626683 ], [ 110.175085382949447, -7.551639272947211 ], [ 110.175042202804505, -7.551624698873385 ], [ 110.175004205011533, -7.551612730449312 ], [ 110.174959060694903, -7.551598646506487 ], [ 110.174914262378422, -7.551593294190144 ], [ 110.174868608749136, -7.551588250491625 ], [ 110.174847876825979, -7.551580597393528 ], [ 110.174790082145009, -7.551559262718714 ], [ 110.174716297201485, -7.551532025020437 ], [ 110.174619960683231, -7.551496463256134 ], [ 110.174478857970669, -7.551444375188282 ], [ 110.174404188907246, -7.551419752440557 ], [ 110.174388967877206, -7.551409708333684 ], [ 110.174376538151279, -7.55140607686039 ], [ 110.174357018018711, -7.551400374287644 ], [ 110.174311353326274, -7.551370612796339 ], [ 110.174310673948185, -7.551336486266287 ], [ 110.174262401388859, -7.551309687451377 ], [ 110.174262856019425, -7.551303201357327 ], [ 110.174266435349381, -7.5512521120588 ], [ 110.174266547897517, -7.551192814354269 ], [ 110.174316429273617, -7.551169954653902 ], [ 110.174343370920425, -7.551114533615535 ], [ 110.174299363116802, -7.551072368461152 ], [ 110.174232382030226, -7.55101485693191 ], [ 110.174190327567075, -7.550953567450337 ], [ 110.174177102079327, -7.550901688431884 ], [ 110.174217429433611, -7.550916881282441 ], [ 110.174284823147204, -7.550942271776082 ], [ 110.174461736820291, -7.551005559934879 ], [ 110.17466944756876, -7.551075737768429 ], [ 110.174825353518074, -7.551127762372003 ], [ 110.175018890453799, -7.551193521109334 ], [ 110.175077538398455, -7.551212265112036 ], [ 110.175092435818996, -7.551212291431695 ], [ 110.175212262611311, -7.551254914419002 ], [ 110.175389012029555, -7.551316072765093 ], [ 110.175539799640319, -7.551367211026029 ], [ 110.175730525162209, -7.551435375517466 ], [ 110.175769461624228, -7.551452799685373 ], [ 110.175822930447382, -7.551500763112896 ], [ 110.175834084477785, -7.551519925739835 ], [ 110.175860366732849, -7.551571829361023 ], [ 110.175894589568202, -7.551651663939793 ], [ 110.175939965841621, -7.551751463417861 ], [ 110.175950307746731, -7.55177780701461 ], [ 110.175974376732128, -7.551818164342151 ], [ 110.175943748594207, -7.551827825243755 ], [ 110.175908206631746, -7.55180939446927 ], [ 110.175840774827918, -7.551787232232576 ], [ 110.175759871883415, -7.551752801481276 ], [ 110.175747571410668, -7.551769917330851 ], [ 110.175738904492988, -7.551811523499128 ], [ 110.175724127220761, -7.551840876858353 ], [ 110.17567850391849, -7.551830807083393 ], [ 110.175666651228923, -7.551829730994613 ], [ 110.17561151646899, -7.551809012870947 ], [ 110.175598926556702, -7.551804282180548 ], [ 110.17559735989586, -7.55180354297454 ], [ 110.175595262802716, -7.551802904974157 ], [ 110.175593451304962, -7.551802224097508 ], [ 110.175592128910296, -7.55180172775402 ], [ 110.17558949770995, -7.551800738710572 ], [ 110.175585757872369, -7.551799333321538 ], [ 110.17558277614566, -7.551798213370957 ], [ 110.175579092464915, -7.551796828890968 ], [ 110.175575241220187, -7.55179538168537 ], [ 110.175572570166167, -7.55179437809489 ], [ 110.175570385501189, -7.551793556319004 ], [ 110.175567856647703, -7.551792607265853 ], [ 110.175566555088082, -7.551792117292988 ], [ 110.175566199128482, -7.551791983662164 ], [ 110.175565581407085, -7.551791751853131 ], [ 110.175563868635749, -7.551791108246507 ], [ 110.175562125069405, -7.55179045282348 ], [ 110.175559236635948, -7.551789367419179 ], [ 110.175546662123296, -7.551784642183344 ], [ 110.175527089795324, -7.551777287069823 ], [ 110.175507515790272, -7.551770338969857 ], [ 110.175475583316796, -7.551759931411409 ], [ 110.175448910119357, -7.551751237824226 ], [ 110.175413321702422, -7.551739638487826 ], [ 110.175381422749993, -7.551729241840048 ], [ 110.175335836644535, -7.551714384670914 ], [ 110.175305303263386, -7.551704182346216 ], [ 110.175255779981057, -7.551683008965226 ], [ 110.175245185333424, -7.551678606741729 ], [ 110.175223361679897, -7.551671175006651 ], [ 110.175200726421025, -7.551663467679779 ], [ 110.175189047828582, -7.551659490324687 ], [ 110.175187107888078, -7.551659148385251 ], [ 110.175184909713778, -7.551658759829593 ], [ 110.175176747649985, -7.551657319857974 ], [ 110.175171289360009, -7.55165635713142 ] ] ] } },
{ "type": "Feature", "properties": { "DUSUN": "Tegalsari", "JENIS_KEBUN": "Kebun Campuran Milik Desa", "Shape_Area": 1258.60234728, "LUAS_M2": 1258.6, "LUAS_HA": 0.1259 }, "geometry": { "type": "Polygon", "coordinates": [ [ [ 110.1762088476885, -7.552309508682489 ], [ 110.176195597316195, -7.552287377211347 ], [ 110.176142970508764, -7.552221171066801 ], [ 110.17605485969159, -7.552105929251438 ], [ 110.175998506598049, -7.552064200434373 ], [ 110.175910270615034, -7.5520150652513 ], [ 110.175824494305274, -7.551962262489967 ], [ 110.175752200262693, -7.551916830462724 ], [ 110.175717917124388, -7.551881263895202 ], [ 110.175710900304182, -7.551837957553905 ], [ 110.175724127220761, -7.551840876858353 ], [ 110.175738904492988, -7.551811523499128 ], [ 110.175747571410668, -7.551769917330851 ], [ 110.175759871883415, -7.551752801481276 ], [ 110.175840774827918, -7.551787232232576 ], [ 110.175908206631746, -7.55180939446927 ], [ 110.175943748594207, -7.551827825243755 ], [ 110.175974376732128, -7.551818164342151 ], [ 110.175991744279628, -7.551847285292137 ], [ 110.176019136610122, -7.551910828086188 ], [ 110.176072620083715, -7.551980769564432 ], [ 110.176081181354235, -7.551998756895236 ], [ 110.176126102933509, -7.552051527785217 ], [ 110.176142847123671, -7.552070001783808 ], [ 110.176166945701496, -7.552104322636324 ], [ 110.176179685707808, -7.552123613971377 ], [ 110.176203992526567, -7.552154708922219 ], [ 110.176216287440795, -7.55217067905793 ], [ 110.176224309230108, -7.552182063543844 ], [ 110.176262687525195, -7.55222241799603 ], [ 110.176277689737873, -7.552242752846423 ], [ 110.176331297754231, -7.552301054736204 ], [ 110.176391060125994, -7.552352220090575 ], [ 110.176458992733203, -7.55241106000883 ], [ 110.176497287649013, -7.552450953000584 ], [ 110.176530906311783, -7.552495242009504 ], [ 110.176546038855307, -7.552524785646299 ], [ 110.176554210996912, -7.55254676915021 ], [ 110.176552666622612, -7.552545745981347 ], [ 110.176529008549778, -7.552530071000879 ], [ 110.176513327130309, -7.552491220096859 ], [ 110.176470228152894, -7.552455241698962 ], [ 110.176419165914609, -7.552403295001856 ], [ 110.176379345028465, -7.552375164649855 ], [ 110.176356896454848, -7.552359303809479 ], [ 110.176315342304662, -7.552352842515562 ], [ 110.176276970797232, -7.552351973309937 ], [ 110.176237039390372, -7.552331955955586 ], [ 110.17621274378179, -7.552301157697279 ], [ 110.1762088476885, -7.552309508682489 ] ] ] } },
{ "type": "Feature", "properties": { "DUSUN": "Tegalsari", "JENIS_KEBUN": "Kebun Tebu Milik Desa", "Shape_Area": 1.2090392919099999, "LUAS_M2": 1.21, "LUAS_HA": 0.0001 }, "geometry": { "type": "Polygon", "coordinates": [ [ [ 110.175656727841186, -7.551826002078174 ], [ 110.1756346092927, -7.55182112044904 ], [ 110.175598926556702, -7.551804282180548 ], [ 110.175644667791062, -7.551821470470701 ], [ 110.175656727841186, -7.551826002078174 ] ] ] } },
{ "type": "Feature", "properties": { "DUSUN": "Tegalsari", "JENIS_KEBUN": "Kebun Tebu Milik Desa", "Shape_Area": 0.068556491748099996, "LUAS_M2": 0.07, "LUAS_HA": 0.0 }, "geometry": { "type": "Polygon", "coordinates": [ [ [ 110.175168848476687, -7.55165012425044 ], [ 110.175127080772171, -7.551629186193038 ], [ 110.175105033368951, -7.551617864751633 ], [ 110.175168848476687, -7.55165012425044 ] ] ] } },
{ "type": "Feature", "properties": { "DUSUN": "Tegalsari", "JENIS_KEBUN": "Kebun Tebu Milik Desa", "Shape_Area": 0.20871876250099999, "LUAS_M2": 0.21, "LUAS_HA": 0.0 }, "geometry": { "type": "Polygon", "coordinates": [ [ [ 110.17456508300836, -7.551453522342448 ], [ 110.174473125285999, -7.551426569552975 ], [ 110.17445908470981, -7.551422082110359 ], [ 110.17456508300836, -7.551453522342448 ] ] ] } }
]
}
