{"type": "FeatureCollection", "features": [{"type": "Feature", "properties": {"Sub_Unsur": "7", "Kelas": "3", "Toponim": "", "Keterangan": ""}, "geometry": {"type": "Point", "coordinates": [110.17167309925729, -7.54953905828934]}}, {"type": "Feature", "properties": {"Sub_Unsur": "7", "Kelas": "3", "Toponim": "", "Keterangan": ""}, "geometry": {"type": "Point", "coordinates": [110.17173834171328, -7.549552069024419]}}, {"type": "Feature", "properties": {"Sub_Unsur": "7", "Kelas": "3", "Toponim": "", "Keterangan": ""}, "geometry": {"type": "Point", "coordinates": [110.17187249923661, -7.549783406861802]}}, {"type": "Feature", "properties": {"Sub_Unsur": "9", "Kelas": "1", "Toponim": "TB. Candra Mulya 2", "Keterangan": ""}, "geometry": {"type": "Point", "coordinates": [110.17294359006412, -7.549883594446823]}}, {"type": "Feature", "properties": {"Sub_Unsur": "7", "Kelas": "3", "Toponim": "", "Keterangan": ""}, "geometry": {"type": "Point", "coordinates": [110.17332328436517, -7.549907191839121]}}, {"type": "Feature", "properties": {"Sub_Unsur": "8", "Kelas": "10", "Toponim": "Balai Desa Sumberarum", "Keterangan": ""}, "geometry": {"type": "Point", "coordinates": [110.17385766980271, -7.5501464397393585]}}, {"type": "Feature", "properties": {"Sub_Unsur": "8", "Kelas": "10", "Toponim": "Balai Kemasyarakatan Aji Brajamusti", "Keterangan": ""}, "geometry": {"type": "Point", "coordinates": [110.17383361028696, -7.550467853881834]}}, {"type": "Feature", "properties": {"Sub_Unsur": "7", "Kelas": "3", "Toponim": "", "Keterangan": ""}, "geometry": {"type": "Point", "coordinates": [110.1733701805478, -7.550696511636776]}}, {"type": "Feature", "properties": {"Sub_Unsur": "2", "Kelas": "24", "Toponim": "KB Dian Pertiwi", "Keterangan": ""}, "geometry": {"type": "Point", "coordinates": [110.17242146848912, -7.550948426727561]}}, {"type": "Feature", "properties": {"Sub_Unsur": "4", "Kelas": "39", "Toponim": "Musholla Sirojuddin", "Keterangan": ""}, "geometry": {"type": "Point", "coordinates": [110.17288101546777, -7.552348030847947]}}, {"type": "Feature", "properties": {"Sub_Unsur": "9", "Kelas": "3", "Toponim": "", "Keterangan": ""}, "geometry": {"type": "Point", "coordinates": [110.17311248380813, -7.552473625075723]}}, {"type": "Feature", "properties": {"Sub_Unsur": "7", "Kelas": "3", "Toponim": "", "Keterangan": ""}, "geometry": {"type": "Point", "coordinates": [110.17312654369145, -7.55269825920875]}}, {"type": "Feature", "properties": {"Sub_Unsur": "7", "Kelas": "3", "Toponim": "", "Keterangan": ""}, "geometry": {"type": "Point", "coordinates": [110.17243152798552, -7.553127455954839]}}]}